area_code,area_name,name,operator,type,turbines,capacity,address,county,lon,lat
E07000145,Great Yarmouth,South Beach Wind Turbine (Somerton),Ecotricity,Wind Onshore,1,1.47,"Somerton, Great Yarmouth, Norfolk",Norfolk,1.6544623487086005,52.7098941617513
E07000143,Breckland,Swaffham 1 - Ecotech Wind Park,LRZ Ltd (Taken over by NOVERA),Wind Onshore,1,1.47,"East of West Acre Road
Swaffham
Norfolk",Norfolk,0.6832674613883248,52.65672934377144
W06000008,Ceredigion,Mynydd Gorddu Wind Farm,Cynllun Trydan Gwynt,Wind Onshore,19,0.54,Mynydd Gorddu Elerch Tal-y-Bont Dyfed,Dyfed,-3.971000532131067,52.466296522145704
W06000008,Ceredigion,Cefn Croes Wind Farm,"Renewable Development Company Ltd, KENTECH Ltd",Wind Onshore,39,1.5,"Canolbarth Forest,  Devils Bridge  Ceredigion",Dyfed,-3.750691129954679,52.40502768181345
W06000023,Powys,Carno 'B' Wind Farm,RWE npower,Wind Onshore,28,0.6,"Trannon Moor, Carno, Powys",Powys,-3.608162900298291,52.54943253516271
W06000023,Powys,Carno 'A' Wind Farm,RWE npower,Wind Onshore,28,0.6,"Cwm Cledan
Carno
Powys",Powys,-3.5791910905231066,52.542306419692125
W06000023,Powys,Cemmaes 'B' Wind Farm,Vestas,Wind Onshore,6,0.56,"Mynydd y Cemmaes
Cemmaes
Machynlleth
Powys",Powys,-3.6720677381405245,52.65791061653896
W06000001,Isle of Anglesey,Trysglwyn Wind Farm,RWE npower,Wind Onshore,14,0.4,"Trysglwyn Fawr
Rhosybol
Isle of Anglesey
Gwynedd",Gwynedd,-4.346466424972191,53.374759720595314
W06000003,Conwy,Hafoty Ucha '2' and '3' Wind Turbine,Private Developer,Wind Onshore,3,0.85,"3 km South of Cerrigydrudion
Llangwm",Clwyd,-3.5882564842916334,52.996202280528635
E08000014,Sefton,Royal Seaforth Dock Wind Farm,Mersey Docks and Harbour Company and Windcluster Limited,Wind Onshore,6,0.5,"Royal Seaforth Dock Port of Liverpool Bootle, Sefton Merseyside",Merseyside,-3.0393103753899644,53.465214429551324
W06000023,Powys,Cemmaes 'C' Wind Farm,Vestas,Wind Onshore,18,0.85,"Cemmaes
Machynlleth
Powys",Powys,-3.6743363711078767,52.63989715423626
W06000001,Isle of Anglesey,Llanbabo Wind Farm,MANWEB Generation Holdings,Wind Onshore,9,2.25,"Llanbabo Wind Farm
Land tp the north of Llyn Alaw
Isle of Anglesey
Gwynedd",Gwynedd,-4.465565943413202,53.35437569300462
E06000047,County Durham,Tow Law Wind Farm,RWE npower,Wind Onshore,3,0.9,"Tow Law, Crook, County Durham",County Durham,-1.82280011955212,54.763803959404896
E06000057,Northumberland,Kirkheaton Wind Farm,Border Wind Farms Ltd /AMEC,Wind Onshore,3,0.6,"West Farm, Kirkheaton, Northumberland",Northumberland,-1.9890039953830516,55.08653945425545
E08000024,Sunderland,Great Eppleton Wind Farm,Border Windfarm Limited / AMEC,Wind Onshore,4,0.75,"Great Eppleton Farm
North Lane
Hetton le Hole
Tyne and Wear",Tyne and Wear,-1.427157596797822,54.82728530202714
E07000026,Allerdale,Great Orton Wind Farm (Extension),Great Orton Wind Farms (II) Ltd,Wind Onshore,6,0.4,"Great Orton Airfield, near Wiggonby, Carlisle, Cumbria",Cumbria,-3.072040365864967,54.87063175305573
E07000031,South Lakeland,Harlock Hill Wind Farm,The Wind Company,Wind Onshore,5,0.5,"Harlock Hill Wind Farm, Pennington, Near Ulverston, Cumbria",Cumbria,-3.146715210620486,54.2048795856387
E07000026,Allerdale,Wharrels Hill Wind Farm,Wharrels Hill Windfarm Ltd/ National Windpower,Wind Onshore,8,1.3,"Wharrels Hill
Bothel
Cumbria",Cumbria,-3.274644894513002,54.72308136448613
E07000026,Allerdale,Siddick Wind Farm,Windprospect / Windcluster,Wind Onshore,7,0.6,Siddick Wind Farm Siddick Workington Cumbria,Cumbria,-3.54295590332423,54.67412543274539
E07000026,Allerdale,Oldside Wind Farm,Windprospect / Windcluster,Wind Onshore,9,0.6,"Oldside Wind Farm
Workington
Cumbria",Cumbria,-3.5563570466576917,54.65957358911215
E07000029,Copeland,Haverigg Extension Wind Farm,The Wind Company,Wind Onshore,4,0.6,"Kirksanton Airfield
Part of Hemplands Farm
Haverigg
Millom
Cumbria",Cumbria,-3.3245331577353623,54.20395425770603
W06000010,Carmarthenshire,Blaen Bowi Wind Farm,WINDJEN POWER LTD,Wind Onshore,3,1.3,"Moelfre Capel Iwan Dyfed, Carmarthenshire",Dyfed,-4.44125288787443,51.997111483294475
W06000010,Carmarthenshire,Parc-Cynog Wind Farm,Micon Wind Turbines (UK) Limited,Wind Onshore,5,0.7,"Parc-Cynog Farm
Pendine
Carmarthenshire",Dyfed,-4.529707539247676,51.7569301708759
W06000003,Conwy,Moel Maelogen A,John Laing Environmental Assets Group,Wind Onshore,2,1.3,"Moel Maelogen
Nr Llanrwst
Conwy
Gwynedd",Gwynedd,-3.7249756687259965,53.13634185749763
E06000011,East Riding of Yorkshire,Out Newton Wind Farm,Powergen Renewables Developments Ltd,Wind Onshore,7,1.3,"Southfield Farms
Hull",Humberside,0.09944618179685724,53.66885367767143
S12000026,Scottish Borders,Brockholes Wind Cluster,Brockholes Farm,Wind Onshore,3,0.8,"Brockholes Farm, Grantshouse, Duns, Borders. TD11 3RL",Borders,-2.28790669334554,55.866597786540794
S12000017,Highland,Kilbraur Windfarm Farlary - Extension,Falck Renewables,Wind Onshore,8,2.5,"Dunrobin Glen, Golspie, The Highlands. KW10 6SE",Highland,-3.9786630078937923,57.99238593890469
W06000012,Neath Port Talbot,Maesgwyn,Pennant Wind Energy Ventures,Wind Onshore,13,2,"Maesgwyn, Glynneath, Neath, West Glamorgan. SA11",West Glamorgan,-3.659554358124413,51.73647561352477
E08000016,Barnsley,Spicer Hill Wind Farm,NA,Wind Onshore,3,2.3,"34 Spicer Hill, Whitley Road, Penistone, Sheffield, South Yorks. S36 7G",South Yorkshire,-1.6921625095189219,53.53675392350311
E09000002,Barking and Dagenham,Ford Motor Company Ltd (Extension),NA,Wind Onshore,1,2,"Thames Avenue, Dagenham. RM9 6SA",London,0.15044912222743534,51.52867924072731
S12000047,Fife,FMC Technologies,FMC Technologies,Wind Onshore,2,0.75,"Pitreavie Crescent, Pitreavie Business Park, Dunfermline, KY11 8UT",Fife,-3.446594758719101,56.05644209370146
S12000034,Aberdeenshire,Boyndie Airfield Extension,Boyndie Wind Farm,Wind Onshore,1,2.3,"Boyndie, Banff, Grampian",Grampian,-2.651820329224303,57.66066512820481
E07000076,Tendring,Blue Gates Farm,M H Leyland Ltd,Wind Onshore,1,1.5,"Colchester Main Road, Alresford, Colchester",Essex,1.0042149197587922,51.863089687029024
E06000011,East Riding of Yorkshire,Celcon Blocks Ltd,Ecotricity / Next Generation,Wind Onshore,1,2,"Heck and Pollington Lane, Pollington, Goole, Humbs",Humberside,-1.0841333714004235,53.67696722478946
S12000023,Orkney Islands,Hammar's Hill,Hammers Hill Energy Ltd,Wind Onshore,5,0.9,"Evie, Orkney",Orkney Islands,-3.072660562513836,59.09573680130949
S12000047,Fife,"F M C Land, Pitreavie Business Park",FMC Corp UK Ltd,Wind Onshore,1,1.5,"Queensferry Road, Pitreavie Crescent, Dunfermline, Fife. KY11 8UD",Fife,-3.4443347551678998,56.05397953994282
S12000034,Aberdeenshire,Strath of Brydock - Extension,Green Cat Renewables,Wind Onshore,1,1.3,"Strath of Brydock, Alvah, Banff",Grampian,-2.5811300426799524,57.6261666154948
S12000008,East Ayrshire,Hare Hill (East Ayrshire),Scottish Power Renewables,Wind Onshore,20,0.66,"New Cumnock, East Ayreshire",Strathclyde,-4.12628273504079,55.36280437392024
E07000031,South Lakeland,Kirkby Moor,Npower Renewables,Wind Onshore,12,0.4,"approximately 4km from Ulverston, within a Site of Special Scientific Interest",Cumbria,-3.135725255851302,54.25749079528635
E07000137,East Lindsey,Bambers II,NA,Wind Onshore,6,0.76,"Mile Lane, Mablethorpe, Lincolnshire",Lincolnshire,0.23842542978860756,53.32128365495736
S12000017,Highland,Millennium Extension II,West Coast Energy Ltd/Falck Renewables,Wind Onshore,6,2.5,"Millennium Windfarm, on The Achlain and Invergarry amd Aberchalder Estates, Glengarry Invergarry, Inverness-Shire, (nr Glen Moriston, Fort Augustus)",Highland,-4.883641231931057,57.15522678150692
S12000034,Aberdeenshire,Cairnmore Farm,Private Developer,Wind Onshore,3,0.85, 3km south-east of Rhynie in Aberdeenshire,Grampian,-2.813707882320394,57.31527780787161
S12000034,Aberdeenshire,St Fergus Moss Wind Farm,Greenspan Electric St Fergus Ltd,Wind Onshore,3,2,"Land at St Fergus Moss, St Fergus, Peterhead",Grampian,-1.9111110377729694,57.571979021369685
S12000023,Orkney Islands,"West Hill, Flotta",Scotrenewables (Scotland) Ltd,Wind Onshore,1,2,"West Hill, Flotta, Orkney",Orkney Islands,-3.123092466785486,58.82696848842588
E07000163,Craven,Chelker Reservoir (Retention of Turbines),Yorkshire Water,Wind Onshore,4,0.3,"Land adjacent to Chelker Reservoir, nr Skipton",North Yorkshire,-1.9141544243898252,53.962432450225165
S12000008,East Ayrshire,Whitelee Windfarm Extension phase 2,NA,Wind Onshore,39,3,north of the Irvine Valley on Eaglesham Moor,Strathclyde,-4.317630408823729,55.63942792702671
S12000034,Aberdeenshire,Hill of Balquhindachy extension,Private Developer,Wind Onshore,2,0.85,"Methlick, Ellon",Grampian,-2.2410407024189962,57.47237030899301
W06000016,Rhondda Cynon Taf,Taff Ely Wind Farm,Npower Renewables,Wind Onshore,20,0.45,10 kilometres (km) north east of Bridgend,Mid Glamorgan,-3.4648125546411617,51.56938794911213
S12000047,Fife,Mossmorran Wind Farm,Airvolution Energy,Wind Onshore,2,2,"Land At To The West Of Chemical Works, Mossmorran,",Fife,-3.317698823137985,56.09052118448165
S12000034,Aberdeenshire,Courtstone Wind Turbine,Private Developer,Wind Onshore,1,2.3,"Methlick
Ellon
AB41 7HH",Grampian,-2.260958354844384,57.39198093378074
S12000017,Highland,Lairg Wind Farm,ABO Wind,Wind Onshore,3,2.5,Land To South Of Toroboll Lairg Highland,Highland,-4.348700172572766,58.00272971312136
W06000015,Cardiff,G24 Innovations Turbine,NA,Wind Onshore,1,2.3,"Wentloog Environmental Centre, WENTLOOG AVENUE, WENTLOOG",South Glamorgan,-3.1042154405538374,51.506661856832416
S12000034,Aberdeenshire,Mornflake Oats Wind Turbine,Mornflake Oats/ Hamlyns Oats,Wind Onshore,1,2.3,"Cairnton Road
Boyndie
Banff
AB45 2LR",Grampian,-2.646158019570326,57.65985881039102
N09000001,Antrim and Newtownabbey,Wind Turbine 1,Brett Martin Ltd,Wind Onshore,1,2.3,"24 ROUGHFORT ROAD
MALLUSK
NEWTOWNABBEY
BT36 4RB
Northern Ireland",Co. Antrim,-6.019599892141793,54.68792229157066
S12000034,Aberdeenshire,Clochnahill Wind Farm,Private Developer,Wind Onshore,4,1.3,"Clochnahill, Stonehaven AB39 2XY",Grampian,-2.290609118975368,56.933475783633654
N09000008,Mid and East Antrim,Ballymena Wind Park Limited,White Young Green Planning,Wind Onshore,2,2.35,Michelin Tyre PLC Raceview Road Ballymena BT42 4HZ Northern Ireland,Co. Antrim,-6.2331532155347205,54.87950233874816
S12000034,Aberdeenshire,St John Hill,Auquhirie Land Company Ltd,Wind Onshore,3,2.5,"St John Hill Windfarm Near Roadside of Kinneff, Stonehaven",Grampian,-2.272423719013998,56.89354966900157
E07000010,Fenland,MARCH SEWAGE TREATMENT WORKS - WIND TURBINE,TCI Renewables,Wind Onshore,1,2,"Anglian Water Authority, Creek Road, March, Cambridgeshire PE15 8RY",Cambridgeshire,0.12147833873308936,52.5713389127916
N09000004,Causeway Coast and Glens,Brockaghboy Wind Farm - extension,Greencoat,Wind Onshore,4,3,west of Dowlins Bridge.  in the townlands of Knockoneill and Dunavenny on the Drumbane Road.  7.5km south of Garvagh,Co. Derry / Londonderry,-6.869208908206868,54.89911239149278
S12000005,Clackmannanshire,Burnfoot Hill,EDF Energies Nouvelles,Wind Onshore,13,2,"Burnfoot Hill, Clackmannanshire",Clackmannanshire,-3.772784836838865,56.2091107136808
E07000163,Craven,Chelker Reservoir,Yorkshire Water,Wind Onshore,4,0.3,"Land adjacent to Chelker Reservoir, nr Skipton",North Yorkshire,-1.9141544243898252,53.962432450225165
S12000034,Aberdeenshire,Strath of Brydock,Green Cat Renewables,Wind Onshore,2,1.3,"Strath of Brydock
Alvah
Banff",Grampian,-2.5811300426799524,57.6261666154948
S12000034,Aberdeenshire,House O'Hill,Green Cat Renewables,Wind Onshore,3,1.67,"Land Around House O'Hill
Fraserburgh",Grampian,-2.0425087459832443,57.62192684941733
N09000005,Derry City and Strabane,Owenreagh Extension,EF Energy,Wind Onshore,6,0.85,"Land near Craignagapple 10km South East of Strabane, County Tyrone",Co. Tyrone,-7.334086360393337,54.80655389575144
E06000013,North Lincolnshire,Bagmoor,Munich Re (previously Wind Prospect),Wind Onshore,8,2,2km East of Flixborough,Humberside,-0.667197547311694,53.62770469743423
E06000011,East Riding of Yorkshire,Croda Chemicals Europe,Croda Chemicals,Wind Onshore,1,3,"Croda International Plc
Cowick Hall
Snaith
Goole
East Yorkshire
DN14 9AA",Humberside,-1.0072078519179988,53.682331785794624
E07000026,Allerdale,"Eastman Chemicals, Workington",NA,Wind Onshore,2,2,"Eastman Chemical Workington Ltd, Siddick, Workington, Cumbria, CA14 1LG",Cumbria,-3.5401292655799357,54.67115052115698
E07000175,Newark and Sherwood,Lindhurst Wind Farm,Npower Renewables,Wind Onshore,5,3,"Lindhurst, South of Mansfield",Nottinghamshire,-1.1516018770680359,53.11750394907149
S12000030,Stirling,Craigengelt,Scotia Wind Ltd,Wind Onshore,8,2.5,"Craigengelt Hill, Stirling",Stirling,-4.049664544324681,56.054258984983456
E06000011,East Riding of Yorkshire,Saltend Wind Turbine,Yorkshire Water,Wind Onshore,1,1.3,"Hull Waste Water Treatment Works, Hull Road, Saltend, Hull, HU12",Humberside,-0.23648631346618368,53.74438961932675
E06000011,East Riding of Yorkshire,Loftsome Bridge,Yorkshire Water,Wind Onshore,2,1,"Loftsome Bridge Water Treatment Works, Water Treatment Works Acc Rd, Barmby On The Marsh, East Riding Of Yorkshire, DN14 6ET",Humberside,-0.937653739872159,53.756789455371504
E08000024,Sunderland,Nissan Wind Farm,Nissan Manufacturing UK,Wind Onshore,6,0.66,"Nissan plant, Sunderland",Tyne and Wear,-1.480759663563157,54.913886254360484
W06000010,Carmarthenshire,Parc Cynog Extension,Nuon,Wind Onshore,6,1.3,"Parc Cynog, Pendine, Carms",Dyfed,-4.533746209118317,51.759181334099615
E07000010,Fenland,Ranson Moor (phase 1),Fenpower Limited,Wind Onshore,3,2,"Land North of ransonmoor Farm 
Benwick Road
Doddington
Cambs, Cambridgeshire, PE15 0TY",Cambridgeshire,0.031375390366434774,52.51266841490863
E07000010,Fenland,Ranson Moor Wind Farm (Phase 2),EcoGen Projects / Fenpower,Wind Onshore,2,2,"Land North East Of Ransonmoor Farm
Benwick Road
Doddington
March
Cambridgeshire, PE15 0TY",Cambridgeshire,0.03732149771947049,52.51058807537479
E06000047,County Durham,West Durham Wind Farm,ESBI,Wind Onshore,12,2,"Land to the north of Tow Law, Co Durham",County Durham,-1.8150296284293705,54.7637923770497
W06000010,Carmarthenshire,Dyffryn Brodyn Wind Farm,Renewable Energy Systems (RES),Wind Onshore,11,0.5,"Dyffryn Brodyn Wind Farm, near Llanboidy, north of St Clears",Dyfed,-4.59071869910124,51.91118129423402
S12000034,Aberdeenshire,North Red Bog,Green Cat Renewables,Wind Onshore,2,0.8,"North Redbog
Strichen
Aberdeenshire
AB43 6RQ",Grampian,-2.0091011320786665,57.58763911649669
E06000042,Milton Keynes,Milton Keynes Wind Farm,Gravis Capital Management,Wind Onshore,7,2,"Petsoe Manor Farm, Near Emberton",Buckinghamshire,-0.6865442553900047,52.13279375584073
E06000047,County Durham,Broom Hill Farm,NA,Wind Onshore,4,2,"Broom Hill Farm
Wolsingham Road
Stanley
Crook
Durham",County Durham,-1.7607157869510484,54.75021770752182
E07000026,Allerdale,Winscales Moor,Gravis Capital Management,Wind Onshore,7,0.85,Winscales Moor,Cumbria,-3.4968120173180832,54.64234879506042
E07000244,East Suffolk,Wind Farm Africa Alive,SLP Energy,Wind Onshore,2,2.05,"Whites Lane
Kessingland
Lowestoft
Suffolk
NR33 7T",Suffolk,1.7028337891847316,52.414794414327524
S12000017,Highland,Beinn Tharsuinn Extension (Beinn nan Oighrean),Midefearn Renewables,Wind Onshore,2,2.3,"Beinn Tharsuinn Wind Farm, Edderton, Highland.",Highland,-4.248151114965529,57.788225350794974
S12000034,Aberdeenshire,St John's Well,Green Cat Renewables,Wind Onshore,3,0.8,"St John's Wells
Fyvie
Formartine
Aberdeenshire",Grampian,-2.325199031294778,57.42662130838494
E07000026,Allerdale,Hellrigg Wind farm,Npower Renewables,Wind Onshore,4,2.5,"Park Head Farm
Silloth
Carlisle",Cumbria,-3.34751981641078,54.85328300004429
W06000023,Powys,Bryn titli Windfarm,Innogy,Wind Onshore,22,0.45,"Bryntitli Platuae, North of Rhayader
Powys",Powys,-3.5655918862422205,52.36716539194247
E06000052,Cornwall,Delabole (Repowering),Good Energy Generation,Wind Onshore,4,2.3,"Delebole
North Cornwall",Cornwall,-4.705305755671466,50.63775081882996
E07000010,Fenland,Whittlesey,REG Windpower (previously Cornwall Light and Power),Wind Onshore,3,3,"McCain's Food, Funtham's Lane, Whittlesey, Peterborough",Cambridgeshire,-0.17192981168450813,52.557963260537726
E08000018,Rotherham,Advanced Manufacturing Research Centre,NA,Wind Onshore,2,1.3,"Advanced Manufacturing Park
Wallis Way
Catcliffe
Rotherham
S60 5TZ",South Yorkshire,-1.3778688501191017,53.38757093000023
W06000022,Newport,Solutia UK Ltd,Solutia / Vestas,Wind Onshore,2,2.5,"Traston Road, Newport, South Wales",Gwent,-2.962615943630029,51.56658052283794
E06000047,County Durham,High Haswell Wind Farm,Hallam Land Management,Wind Onshore,2,2,"Colliery Farm, Green Lane, High Haswell",County Durham,-1.431218530952517,54.78751176993898
W06000023,Powys,Llandinam Windfarm,CELTPOWER LTD,Wind Onshore,103,0.3,10km south of Newtown,Powys,-3.430830875703433,52.44210427343273
E06000052,Cornwall,Goonhilly Downs Wind Farm Repower,REG Windpower (previously  Cornwall Light & Power),Wind Onshore,6,2,"Goonhilly Downs Wind Farm, Bonython Manor, Cury Cross Lanes, Helston, Cornwall, TR12 7BA",Cornwall,-5.200212607969071,50.05036214700748
E06000057,Northumberland,MSD Cramlington,NA,Wind Onshore,2,2,"Shotton Lane, Cramlington, Northumberland, NE23 3JU",Northumberland,-1.6221658892428976,55.103495580389456
S12000034,Aberdeenshire,Skelmonae Wind Farm,Private Developer,Wind Onshore,4,0.9,"Skelmonae
Methlick
Ellon
AB41 7JR",Grampian,-2.1897543231400567,57.42082601570199
E06000052,Cornwall,Carn Vean,NA,Wind Onshore,5,2,"Carn Vean, Tretheague Mill, Stithians, Truro, Cornwall",Cornwall,-5.187462212879329,50.1799060805921
E07000128,Wyre,Dewlay Cheese Wind Turbine,Dewlay Cheese Company,Wind Onshore,1,2,"Dew Lay Products Limited
Garstang Pass Road, Garstang, Preston PR3 0PR.",Lancashire,-2.785950368138305,53.888256096694796
E07000117,Burnley,Coal Clough Wind Farm,Renewable Energy Systems (RES),Wind Onshore,24,0.4,Burnley,Lancashire,-2.149983685162335,53.74966189910283
S12000011,East Renfrewshire,Myres Hill,National Energy Laboratories (NEL),Wind Onshore,2,0.9,Galloway,Strathclyde,-4.279044010610625,55.69185764289906
E06000047,County Durham,High Sharpley Wind Farm,REG Windpower (previously Cornwall Light & Power),Wind Onshore,2,1.3,"High Sharpley and South Sharpley Farms
Near Seaham
County Durham",County Durham,-1.337534566011748,54.840327410613696
S12000011,East Renfrewshire,National Wind Turbine Test Site,NEL,Wind Onshore,2,2.3,"National Wind Turbine 
Test site
Myres Hill
Eaglesham",Strathclyde,-4.284385271238472,55.69067980659526
E07000112,Folkestone and Hythe,Little Cheyne Court Wind Farm,RWE npower,Wind Onshore,26,2.3,"Little Cheyne Court, Romney Marsh
Near Lydd
Kent",Kent,0.8227368165057044,50.96382348228797
N09000005,Derry City and Strabane,Bessy Bell Wind Farm,"Colham Energy Ltd, plus Airtricty extrension",Wind Onshore,10,0.5,"Bessy Bell Mountain Baronscourt Estate Newtownstewart, County Tyrone",Co. Tyrone,-7.4404591441319505,54.703950821595676
E07000010,Fenland,Long Hill Road,Snow Mountain Investment Ltd,Wind Onshore,1,2,"Foundry Way
Longhill Road
March",Cambridgeshire,0.08930258267478738,52.573098015299436
N09000004,Causeway Coast and Glens,Corkey Wind Farm,B9 Energy Services Ltd/ ScottishPower Renewables,Wind Onshore,10,0.5,"Slievenahanaghen Mountain, (Accessed via Corkey Road), Cloughmills",Co. Antrim,-6.28731115028854,55.043562791591036
E07000244,East Suffolk,Ness point Wind Turbine 1,SLP Energy,Wind Onshore,1,2.3,"Land off North Beach Industrial Estate
Off Wilde Street
Nesspoint
Lowestoft",Suffolk,1.76101601508212,52.48041805739723
N09000001,Antrim and Newtownabbey,Elliot's Hill Wind Farm,B9 Energy Services Ltd/ ScottishPower Renewables,Wind Onshore,10,0.5,"Elliot's Hill
Tildarg
near Ballyclare
County Antrim",Co. Antrim,-6.118966593982835,54.73893281683261
S12000017,Highland,Causeymire,Innogy (formerly RWE npower),Wind Onshore,24,2,"Causey Mire, Caithness, Highlands",Highland,-3.085422902255095,58.44346980051585
S12000028,South Ayrshire,Hadyard Hill,Scottish and Southern Energy (SSE),Wind Onshore,52,2.3,"Hadyard Hill, East of Girvan, South Ayrshire",Strathclyde,-4.731906523509733,55.25682334101137
E06000047,County Durham,Hare Hill (B),Powergen,Wind Onshore,2,1.35,"Hare Hill, Durham",County Durham,-1.4151091161122948,54.76158064449295
N09000004,Causeway Coast and Glens,Rigged Hill Wind Farm,B9 Energy Services Ltd/ ScottishPower Renewables,Wind Onshore,10,0.5,"Rigged Hill, 11km east of Limavady, County Londonderry",Co. Derry / Londonderry,-6.819826291241417,55.021853852946535
N09000005,Derry City and Strabane,Bin Mountain,Greencoat UK Wind,Wind Onshore,6,1.5,"Lough Hill
Castle Craig, Curraghmacall
Drummahon,",Co. Tyrone,-7.605365752177564,54.641363537220286
S12000026,Scottish Borders,Crystal Rig Phase 1,Fred Olsen Renewables,Wind Onshore,25,2.5,"Crystal Rig, Scottish Borders",Borders,-2.507506015278352,55.882950328328626
S12000029,South Lanarkshire,Black Law,Scottish Power Renewables,Wind Onshore,54,2.3,"Black Law, Climpy",Strathclyde,-3.762566605098417,55.76218897974121
S12000021,North Ayrshire,Ardrossan,Airtricity,Wind Onshore,12,2,"Near Ardrossan
North Ayreshire",Strathclyde,-4.806141229676192,55.64389978582304
N09000005,Derry City and Strabane,Owenreagh Wind Farm,EF Energy,Wind Onshore,10,0.5,"Land near Craignagapple 10km South East of Strabane 
County Tyrone",Co. Tyrone,-7.339018544776507,54.80968426021983
S12000030,Stirling,Braes O'Doune,Greencoat UK Wind,Wind Onshore,36,2,"Stirling,  2 km to the north of Braes of Doune",Stirling,-4.058937426759886,56.269828915366006
S12000023,Orkney Islands,Thorfinn Wind Farm - NM1500,Vestas,Wind Onshore,1,1.5,"Burgar Hill, Orkney",Orkney Islands,-3.1438281773113665,59.11310899042899
N09000006,Fermanagh and Omagh,Slieve Rushen Phase 1 Wind Farm,Sean Quinn Group,Wind Onshore,10,0.5,"Slieve Rushen
Derrylin
20km south of Enniskillen, County Fermanagh",Co. Fermanagh,-7.62840011815144,54.19028103229391
S12000017,Highland,Boulfruich,Private Developer,Wind Onshore,15,0.85,"Houstry
Dunbeath
Caithness",Highland,-3.4433540217195433,58.29993746737623
E07000136,Boston,Bicker Fen,Wind Prospect,Wind Onshore,13,2,"Bicker Fen, Bicker, Boston, Lincolnshire",Lincolnshire,-0.2178149352088049,52.937944872297955
E07000010,Fenland,Stags Holt,Powergen / Wind Prospects,Wind Onshore,9,2,"March
Cambridgeshire",Cambridgeshire,0.1232914174246108,52.56976887267601
N09000006,Fermanagh and Omagh,Tappaghan,Greencoat UK Wind,Wind Onshore,13,1.5,"Lack, Tappaghan Mountains, Northern Ireland",Co. Fermanagh,-7.695579791861857,54.54713562172703
E07000010,Fenland,Glass Moor,Fenland Windfarms Ltd,Wind Onshore,8,2,"Glass Moor
Near Pondersbridge
Cambridgeshire",Cambridgeshire,-0.108802791482311,52.518561438873505
E07000140,South Holland,Gedney Marsh,Wind Prospect,Wind Onshore,6,2,"Gedney Marsh
Gedney Drove End
Lincolnshire",Lincolnshire,0.10677781047805049,52.83616828233133
S12000017,Highland,Ben Aketil,RDC Scotland (Renewable Development Co.),Wind Onshore,10,2.3,"Ben Aketil
Feorlig
Dunvegan",Highland,-6.458341100842846,57.42980814867901
E07000165,Harrogate,Knabs Ridge Windfarm,RWE npower,Wind Onshore,8,2,"Land between Skipton Road and Penny Pot Lane, Selliscliffe, Harrogate",North Yorkshire,-1.6495751803691199,53.999036084364185
S12000021,North Ayrshire,Kelburn,Renewable Energy Systems (RES),Wind Onshore,14,2,"Largs
North Ayrshire",Strathclyde,-4.806239806729525,55.75626067554038
E07000011,Huntingdonshire,Ramsey 1,REG Windpower,Wind Onshore,1,1.8,"Rear of Packing Station
St Mary's Road
Ramsey
Cambs",Cambridgeshire,-0.10629744905057557,52.44688833862217
E07000137,East Lindsey,Bambers Farm,Ecotricity,Wind Onshore,8,0.6,"Mile Lane, Mablethorpe, Lincolnshire",Lincolnshire,0.23842542978860756,53.32128365495736
E09000002,Barking and Dagenham,Ford Wind Park - Dagenham,Ecotricity,Wind Onshore,2,2.96,"Ford Motor Company Estate
Kent Avenue
Dagenham",London,0.1508289571112228,51.518690209334785
E07000143,Breckland,Swaffham Plashes II,Ecotricity,Wind Onshore,1,1.79,"Old Sporle Road
Swaffham",Norfolk,0.7007017596125766,52.657681935226165
E07000187,Mendip,Shooters Bottom Wind Park,Ecotricity,Wind Onshore,1,2,"Shooters Bottom, Chewton Mendip,",Somerset,-2.5834399185269503,51.254369366073085
N09000005,Derry City and Strabane,Bessy Bell Extension,Bessy Bell Windfarm,Wind Onshore,6,1.3,"Bessy Bell Moutain, 5km south of Newtownstewart, 17km south of Strabane and 9km northwest of Omagh",Co. Tyrone,-7.426539338201711,54.70503565371882
E07000121,Lancaster,Caton Moor Windfarm Repowering,Hainsford Energy,Wind Onshore,8,2,"Littledale,
Caton
Lancashire",Lancashire,-2.654016206597732,54.069820502642095
W06000003,Conwy,Moel Maelogen A Phase 2,John Laing Environmental Assets Group,Wind Onshore,8,1.3,"Moel Maelogen, Nr Llanrwst, Conwy, Gwynedd",Gwynedd,-3.7249756687259965,53.13634185749763
E07000125,Rossendale,Scout Moor Windfarm,Munich Re (previously Peel),Wind Onshore,26,2.5,"Land at Scout Moor, off Edenfield Road, Rochdale",Lancashire,-2.26785853491505,53.66897658356124
E07000235,Malvern Hills,The Haven,Private Developer,Wind Onshore,1,1.2,"The Haven
Oxhill Farm
Blackmor Park
Malvern
Worcestershire",Hereford and Worcester,-2.3184117894637533,52.12897579599758
E07000137,East Lindsey,The Hollies,National Wind Power,Wind Onshore,2,1.3,"The Hollies
High Lane 
Croft
Skegness
pe24 4sh",Lincolnshire,0.24110552554490125,53.14301854784259
S12000034,Aberdeenshire,Tullo Farm,West Coast Energy (agents for Tullo Wind Ltd and GE Wind),Wind Onshore,7,2.5,"Tullo Farm, Laurencekirk, Aberdeenshire
Garvock
Laurencekirk",Grampian,-2.2107583566110285,56.96390980526241
N09000004,Causeway Coast and Glens,Garves Mountain Farm,Gravis Capital Management,Wind Onshore,5,3,"Garves Mountain Farm, Tullaghans Road
(access adjacent to no. 91), Dunloy.
Ballymoney",Co. Antrim,-6.5648680376198865,55.00175792025587
E06000023,"Bristol, City of",Avonmouth Port,Bristol Port Authority,Wind Onshore,3,2,Avonmouth Port,Avon,-2.702727413674167,51.5166337407691
S12000034,Aberdeenshire,Dummuie,Tetro Energy Ltd (ECO2),Wind Onshore,7,1.75,"East Dummuie
Huntly",Grampian,-2.6915117252250096,57.45110354288081
S12000030,Stirling,Earlsburn,Falck Renewables,Wind Onshore,14,2.5,"Hart Hill, Fintry, Stirling",Stirling,-4.095513956773989,56.07080629622523
S12000017,Highland,Kilbraur Windfarm,Renewable Development Company (RDC),Wind Onshore,19,2.5,"Rogart, Sutherland
(former Strath Brora Site)",Highland,-4.058804857595992,58.04040163757691
S12000017,Highland,Achany Wind Farm,Scottish and Southern Energy (SSE),Wind Onshore,19,2,"Albany Estate, Achany, Lairg, Highlands, IV27 4",Highland,-4.500008297556101,58.00194773414335
S12000017,Highland,Bilbster Wind Farm,Private Developer,Wind Onshore,3,1.3,"Flex Hill, Flex Hill Wind Cluster, Bilbster, Caithness",Highland,-3.249833252599116,58.44883465993638
E06000041,Wokingham,Green Park,Ecotricity / Prudential,Wind Onshore,1,2,"Plot 12, South Oak Way, Green Park, Reading, Berkshire",Berkshire,-0.9855264067656769,51.41899750582904
S12000026,Scottish Borders,Carcant Windfarm,Greencoat UK Wind,Wind Onshore,3,2,Innerleithen,Borders,-3.017556833756378,55.76477631785419
E06000047,County Durham,Butterwick Moor,E.ON UK,Wind Onshore,10,2.05,"Butterwick Moor, Sedgefield",County Durham,-1.396905880462342,54.66358093453823
S12000029,South Lanarkshire,Hagshaw Hill Wind Farm Extension,Scottish Power Renewables,Wind Onshore,20,1.3,Extension to current Windfarm at Hagshaw Hill,Strathclyde,-3.9203184304538006,55.56660389518239
E06000047,County Durham,Southern Law,EDF Energy,Wind Onshore,4,1.3,"Southern Law Farm
Trimdon Grange",County Durham,-1.4348501704697543,54.72217770364319
W06000008,Ceredigion,Llangwyryfon,Westbury Windfarms,Wind Onshore,11,0.85,"Llangwyryfon,
Southeast Aberystwyth
Ceredigion",Dyfed,-4.029155606454506,52.306854938698976
S12000040,West Lothian,Pates Hill,Your Energy,Wind Onshore,7,2,"West Calder Lothian, EH55",Lothian,-3.6113177433851686,55.81638608679792
E06000052,Cornwall,Roskrow Wind Turbines,REG Windpower (previously Cornwall Light and Power),Wind Onshore,2,0.85,"Roskrow Barton Farm, Roskrow, Penryn, Cornwall, TR10 9AP",Cornwall,-5.131645886930914,50.1772786915208
S12000050,North Lanarkshire,Greendykeside,A7 Energy,Wind Onshore,2,2,"Greendykeside Farm, Longriggend, Airdrie, Lanarkshire",Strathclyde,-3.9032161916312424,55.91199366113569
N09000004,Causeway Coast and Glens,Gruig Wind Farm,Foresight Group,Wind Onshore,10,2.5,"Gruig, Corkey, nr Cloughmills, Co. Antrim",Co. Antrim,-6.285711547701667,55.01879369158351
N09000008,Mid and East Antrim,Wolf Bog Wind Farm,B9 Energy / RES,Wind Onshore,5,1.75,"Wolf Bog, Tildarg, nr Ballyclare, Co. Antrim",Co. Antrim,-6.08061033487768,54.8042970038054
N09000005,Derry City and Strabane,Curryfree Wind Farm,ESB,Wind Onshore,6,2.5,"Curryfree ,
South of Newbuildings / Drumahoe and north of Dunamanagh,
Co. Londonderry",Co. Derry / Londonderry,-7.316700376839917,54.92929802592682
N09000004,Causeway Coast and Glens,Altahullion Phase II,B9 Energy / RES,Wind Onshore,9,1.3,"Altahullion Wind Farm,
Dungiven,
Co. Londonderry",Co. Derry / Londonderry,-6.999554571480628,54.97018949149881
N09000006,Fermanagh and Omagh,Slieve Divena Phase 1 Wind Farm,Greencoat (formerly Infinis/SSE),Wind Onshore,12,2.5,"Slieve Divena
Sixmilecross
Beragh
Ballygawley
County Tyrone",Co. Tyrone,-7.106399976818087,54.508596735302305
E08000018,Rotherham,Loscar Farm,REG Windpower (previously Cornwall Light and Power),Wind Onshore,3,1.3,"Loscar Farm, Packman Lane, Harthill",South Yorkshire,-1.2359614619371595,53.31448600820348
E06000047,County Durham,Langley Moor,EDF Energy,Wind Onshore,4,2,"Burnhope
Standagainstall 
Plantation, Long Edge, Burnhope, County Durham",County Durham,-1.675799692920282,54.82373706312032
N09000006,Fermanagh and Omagh,Land approx 75m South of 141,Private Developer,Wind Onshore,8,2.5,"Land approx 75m South of 141 Greencastle Road, Omagh",Co. Tyrone,-7.088607144977593,54.686294598419536
N09000009,Mid Ulster,Hunter's Hill,Wind Farm Developments  / RES UK & Ireland,Wind Onshore,8,2.5,"Hunter's Hill, (In the townlands of Tattymoyle Lower, Edergole, Killygordon and Tattanafinnell), Co Tyrone",Co. Tyrone,-7.341507635566586,54.438995278988656
S12000028,South Ayrshire,Arecleoch Windfarm,Scottish Power Renewables,Wind Onshore,60,2,Arecleoch and Kilgallioch Forest near Barrhill,South Ayrshire,-4.797053507264143,55.06878497205822
S12000028,South Ayrshire,Mark Hill,Force 9 Energy,Wind Onshore,24,2.3,"Mark's Hill, Barrhill",Strathclyde,-4.746310375516401,55.1283730537946
N09000006,Fermanagh and Omagh,Screggagh,Screggagh Windfarm,Wind Onshore,8,2.5,"Screggagh, Screggagh & Stranisk townlands, Fintona. Co Tyrone",Co. Tyrone,-7.332900103311362,54.46239773002679
E07000180,Vale of White Horse,Westmill Wind Farm,Private Developer,Wind Onshore,5,1.3,"Westmill Farm, Highworth Road, Watchfield, Swindon, Oxon",Oxfordshire,-1.6660633805921579,51.61577720724277
W06000009,Pembrokeshire,Lodge Farm 1,Private Developer,Wind Onshore,1,1,"Lodge Farm, Hubberston, Milford Haven",Dyfed,-5.060933113823004,51.72629770150175
W06000023,Powys,"Carno 'A'and 'B' Wind Farm, (Extension)",RWE npower,Wind Onshore,12,1.3,"Cwm Cledan, Carno, Powys",Powys,-3.5791910905231066,52.542306419692125
S12000017,Highland,Achairn,Messrs James and Ronald Innes,Wind Onshore,3,2.05,"West of Wick, Caithness",Highland,-3.201506235112556,58.438518198974606
E06000047,County Durham,High Hedley Hope 2 (Extension),EDF Energy,Wind Onshore,4,1.3,"High Hedley Farm, Tow Law, Bishop Auckland, County Durham",County Durham,-1.7575281860571033,54.76369119846399
S12000035,Argyll and Bute,Beinn an Tuirc,CRE Energy/ Scottish Power,Wind Onshore,46,0.37,Nr. Carradale,Strathclyde,-5.587352693566457,55.573170618122
S12000035,Argyll and Bute,Cnoc Donn Arnicle,CRE Energy/ Scottish Power,Wind Onshore,26,0.57,"Situated next to Beinn an Tuirc
Kintyre",Strathclyde,-5.568137305583777,55.5800262500568
S12000035,Argyll and Bute,Beinn Ghlas Wind Farm,RWE npower,Wind Onshore,14,0.55,"Land at Carn Gaibhre, Argyle and Bute",Strathclyde,-5.29771401283522,56.382347070718794
S12000017,Highland,"Bendealt Wind Farm, Highland",RWE npower,Wind Onshore,18,0.5,Novar Estate,Highland,-4.426656084930237,57.70549959488195
S12000017,Highland,Meall an Tuirc Wind Farm,RWE npower,Wind Onshore,34,NA,Novar Estate,Highland,-4.426956444746046,57.7099866660903
S12000035,Argyll and Bute,An Suidhe,RWE npower,Wind Onshore,23,0.9,"Dalmally, Strathclyde. PA33   On the eastern shore of Loch Awe",Strathclyde,-5.219366660026288,56.21866506121187
S12000026,Scottish Borders,Roughside Hill,PowerGen and Natural Power,Wind Onshore,24,1.25,"Roughside Moss, Peebles",Borders,-3.06771001757565,55.70459627671638
S12000019,Midlothian,Bowbeat Wind Farm,PowerGen and  Natural Power Consultants Ltd,Wind Onshore,24,1.3,"Roughside Hill and Emily Bank, Peebles",Lothian,-3.1221363070114116,55.715792357407224
S12000029,South Lanarkshire,Hagshaw Hill Wind Farm,Trigen,Wind Onshore,13,0.6,The site lies 4km west of Douglas,Strathclyde,-3.920083224696075,55.55528378472635
S12000013,Na h-Eileanan Siar,Arnish Moor,Arnish Electric Ltd / Farm Energy,Wind Onshore,3,1.3,"Nr Stornaway, Isle of Lewis",Western Isles,-6.438323524417271,58.176637873862504
S12000023,Orkney Islands,Burgar Hill,Orkney Sustainable Energy,Wind Onshore,2,2.5,"Evie, Orkney",Orkney Islands,-3.1492162027828607,59.1175519271275
S12000023,Orkney Islands,Thorfinn Wind Farm - NM2000,Vestas,Wind Onshore,2,1.15,"Burgar Hill and the Wards, Evie, Orkney",Orkney Islands,-3.1403737304912367,59.1090081003774
S12000017,Highland,Hill of Lybster,Fivestone Ltd (subsidiary of Abbey Produce),Wind Onshore,4,1.3,"Forss Phase 2, Caithness",Highland,-3.6881357460645985,58.60235907124372
S12000027,Shetland Islands,Burradale Hill,Shetland Aerogenerators,Wind Onshore,5,0.75,"Lerwick, Shetland, N Isles",Shetland,-1.2360532219136173,60.16475439799947
S12000034,Aberdeenshire,Glens of Foudland,Green Investment Bank  (Blackrock),Wind Onshore,20,1.3,"Bognie Estate, Upper Milburn, Aberdeenshire",Grampian,-2.6360745631622526,57.425345325402404
W06000009,Pembrokeshire,Castle Pill - Repowering,John Laing Environmental Assets Group,Wind Onshore,4,0.8,"Steynton, Pembroke, Dyfed",Dyfed,-5.012795784968717,51.720032892749515
S12000023,Orkney Islands,New Holland,Windflow UK,Wind Onshore,2,0.5,"Land Near New Holland, Stratheast Road, Holm, Orkney, Orkney Isles",Orkney Islands,-2.86890650694399,58.91329753563234
E07000144,Broadland,Weston Airfield Wind Turbines,Bernard Matthews,Wind Onshore,2,1.8,"The Old Airfield, Airfield Lane, Weston Longville",Norfolk,1.0915444113095565,52.69525642253765
E07000028,Carlisle,Orton Park Farm,Orton Park Wind Energy,Wind Onshore,2,0.8,"Orton Park Farm, Orton Park, Carlisle",Cumbria,-3.006706238452012,54.86897122153088
E08000013,St. Helens,PROMISED LAND FARM,Private Developer,Wind Onshore,2,0.5,"PROMISED LAND FARM, CRANK ROAD, KINGS MOSS, ST HELENS, LANCASHIRE, WA11 8RW",Merseyside,-2.737804738587779,53.51133071522702
E07000046,Torridge,Nethercott Farm,Private Developer,Wind Onshore,3,0.5,Land At Nethercott Farm Tetcott Holsworthy Devon,Devon,-4.335360933647139,50.74425301697902
S12000047,Fife,Bonerbo Wind Turbines,"Messrs Stevenson, Watson and Brunton",Wind Onshore,3,0.5,Balmonth And Drumrack Farms Bonerbo Dunino,Fife,-2.746685758379604,56.2594371966236
W06000009,Pembrokeshire,Princes Gate Spring Water,Princes Gate Spring Water,Wind Onshore,2,0.8,"Princes Gate Spring Water, Ludchurch, Narberth,",Dyfed,-4.684423712440712,51.771950477500084
S12000017,Highland,Phase 1 Bettyhill Wind Farm,North British Windpower Ltd,Wind Onshore,2,2.5,"Skelpick Estate, Thurso KW14 7TA",Highland,-4.1946952348996165,58.53559309186397
E07000035,Derbyshire Dales,Sibelco Brassington,Sibelco/ Golconda,Wind Onshore,1,2.5,Manystones Lane Brassington Derbyshire,Derbyshire,-1.6283812493038712,53.09093803235042
E07000031,South Lakeland,Lambrigg Wind Farm,Lambrigg Windfarm Ltd,Wind Onshore,5,1.3,"Lambrigg Fell, Off A684, Roan Edge
Cumbria",Cumbria,-2.6351394090831866,54.336284797593486
E07000027,Barrow-in-Furness,Askam,Cannock Renewables,Wind Onshore,7,0.66,"Land North East of Far Old Park Farm, Ireleth, Askam-in-Furness",Cumbria,-3.1813783567173135,54.18387229004082
E06000052,Cornwall,Bears Down Wind Farm,Natural Power,Wind Onshore,16,0.6,"Bears Down Reservoir
St Colomb
Cornwall",Cornwall,-4.9556272706104725,50.47029054568845
S12000048,Perth and Kinross,Welton Of Creuchies,Green Cat Renewables,Wind Onshore,4,2.3,"Alyth, Blairgowrie",Tayside,-3.279415519484869,56.63696989514959
S12000034,Aberdeenshire,Droop Hill Wind Farm x,Macphie Of Glenbervie Ltd,Wind Onshore,2,2.3,Stonehaven AB39 3YA,Grampian,-2.4006709734247536,56.9229033100238
S12000034,Aberdeenshire,Denhill,Private Developer,Wind Onshore,1,2.3,"St Katherine's, Inverurie, Aberdeenshire",Grampian,-2.3410245193766546,57.41115618030958
S12000034,Aberdeenshire,Haddo,Private Developer,Wind Onshore,2,2.3,"Methlick, Ellon, Aberdeenshire",Grampian,-2.3075987362976504,57.428722555879894
S12000034,Aberdeenshire,Gairnieston Farm,Private Developer,Wind Onshore,1,2.3,"Turriff, Aberdeenshire",Grampian,-2.4240481116091215,57.593592135303375
S12000023,Orkney Islands,"Burgar Hill (land Near), Evie",NA,Wind Onshore,1,2.5,"Evie, Orkney",Orkney Islands,-3.1492162027828607,59.1175519271275
S12000014,Falkirk,Tod Hill Farm Wind Turbines,Falkirk Tod Hill Wind Limited,Wind Onshore,4,3,Todhill Farm Larbert,Falkirk,-3.862116950283768,56.032492925442874
S12000026,Scottish Borders,Moorhouse Farm,Urban Wind,Wind Onshore,2,0.5,Land North West Of Shepherds House Moorhouse Coldingham Scottish Borders,Borders,-2.2508376025370778,55.90390332992608
E08000016,Barnsley,Royd Moor,NA,Wind Onshore,13,0.45,"Royd Moor, Penistone",South Yorkshire,-1.669565583700058,53.532199472482574
S12000017,Highland,Stroupster Wind Farm - additional turbine,Greencoat UK Wind/Bay Wa .r.e/ SunGift,Wind Onshore,1,2.3,"Stroupster, Caithness",Highland,-3.1369711375090352,58.57190388389776
E06000034,Thurrock,Little Belhus Restoration Site,Constantine Wind Energy,Wind Onshore,2,0.5,"Land Between M25 And West Road, West Road, South Ockendon",Essex,0.2776349361134486,51.52248318169757
S12000026,Scottish Borders,Crystal Rig Wind Farm Phase 2a,Fred Olsen Renewables,Wind Onshore,60,2.3,"Dundfar Common, Eastern Lammermuirs",Borders,-2.5293113735388078,55.89948068296659
S12000035,Argyll and Bute,Clachan Flats Wind Farm,AMEC/ Border Winds,Wind Onshore,9,1.67,"North of the head of Loch Fyne 
Ardkinlas",Strathclyde,-4.942889825389989,56.28809278304757
E07000137,East Lindsey,Fen Farm,Ecotricity,Wind Onshore,20,0.8,"Fen Farm, Fen Lane, Conisholme, South Lincolnshire",Lincolnshire,0.06903850657896708,53.423280292772674
E07000046,Torridge,Darracott Moor,Gresham House,Wind Onshore,3,0.85,"Torrington, Devon, EX38",Devon,-4.513013713448156,50.92987719868173
S12000029,South Lanarkshire,Lochhead Farm,A7 Energy / Green Energy,Wind Onshore,3,2,"Land at Lochhead Farm, Stonehouse",Strathclyde,-3.9823487397043014,55.695929956296425
S12000026,Scottish Borders,Toddleburn,Scottish and Southern Energy (SSE),Wind Onshore,12,2.3,Oxton,Borders,-2.8773910082852336,55.76855269537965
E06000052,Cornwall,Crimp Wind Farm,Crimp Power Ltd (West Coast Energy),Wind Onshore,3,0.8,"Morwenstow,  Kilkhampton,",Cornwall,-4.488145556663195,50.91192722684798
E06000047,County Durham,Hedley Hope,Border Wind,Wind Onshore,3,0.8,"High Hedley Farm, Tow Law, Bishop Auckland, County Durham",County Durham,-1.7575281860571033,54.76369119846399
S12000035,Argyll and Bute,Tangy Wind Farm/Tangy 1,Border Wind / Scottish and Southern (SSE),Wind Onshore,15,0.85,"Kilkenzie, Cambeltown",Strathclyde,-5.666584618603039,55.49529060344506
E07000010,Fenland,Coldham Hall,Co-op,Wind Onshore,8,1.75,"Coldham Hall
Nr the Coldham Estate
Cambridgeshire",Cambridgeshire,0.11491353619378901,52.602962218830804
E07000010,Fenland,Whitemill Wind Farm,Co-operative Energy,Wind Onshore,7,2,"Coldham Estate, Coldham, Wisbech",Cambridgeshire,0.14063440762083657,52.59256452871288
S12000048,Perth and Kinross,Green Knowes,CRE Energy/ Scottish Power,Wind Onshore,18,1.5,"Land at Green Knowes, by Glendevon",Tayside,-3.6662575829525648,56.24923105301945
S12000011,East Renfrewshire,Whitelee,CRE Energy/ Scottish Power,Wind Onshore,140,2.3,"Eaglesham Moor, Whitelee Forest,  Fenwick Moor, East Kilbride, South of Glasgow",Strathclyde,-4.279060578358626,55.68120687788657
E07000026,Allerdale,Great Orton,Cumbria Wind Farms,Wind Onshore,6,0.66,"Near Carlisle
Cumbria",Cumbria,-3.0767381323852776,54.87148887702734
E07000026,Allerdale,Winscales Phase I and II,Cumbria Wind Farms,Wind Onshore,11,0.8,"Winscales, Workington, Cumbria",Cumbria,-3.504059125414785,54.62877741224227
E06000047,County Durham,Holmside Hall,E.ON UK,Wind Onshore,2,1.37,"Burnhope, Stanley, County Durham",County Durham,-1.6776060849389032,54.847079672318785
E06000001,Hartlepool,High Volts Wind Farm,E.ON UK,Wind Onshore,3,1.83,"Potters Farm, Elwick, Hartlepool, Cleveland",Cleveland,-1.3002704430675824,54.69361687901773
E06000047,County Durham,Hare Hill,E.ON UK,Wind Onshore,1,1.3,"Harehill Farm, Haswell Plough, County Durham",County Durham,-1.4151091161122948,54.76158064449295
E08000024,Sunderland,Great Eppleton Farm Repowering,E.ON UK,Wind Onshore,4,2,"Hetton, Houghton-le-Spring, Tyne & Wear, DH5 9NL",Tyne and Wear,-1.427157596797822,54.82728530202714
E06000047,County Durham,Haswell Moor,E.ON UK Renewables Developments Ltd,Wind Onshore,5,2,"Haswell Moor
Easington
County Durham",County Durham,-1.409608886953325,54.76577774417485
E07000171,Bassetlaw,Worksop - B&Q,Ecotricity,Wind Onshore,1,2,"Manton Wood, Worksop, Nottinghamshire",Nottinghamshire,-1.075746162664589,53.29975227517197
E06000052,Cornwall,Cold Northcott,Otter Power,Wind Onshore,22,0.3,"Launceston
Cornwall",Cornwall,-4.546748582460881,50.64550915882092
S12000034,Aberdeenshire,Upper Ardgrain Wind Farm,Green Cat Renewables,Wind Onshore,3,0.8,"Ellon, Aberdeenshire",Grampian,-2.0597655180413676,57.40636717538202
S12000023,Orkney Islands,Rothiesholm,Longearth Ltd / Farm Energy,Wind Onshore,3,0.9,"Rothiesholm, Stronsay, Orkney",Orkney Islands,-2.660078974138682,59.097252646145435
S12000034,Aberdeenshire,Hill of Easterton,Mackies,Wind Onshore,1,2.5,"Hill of Easterton, 1km North Of Mackies Ice Cream Dairy, Westertown, Rothienorman, Inverurie, AB51 8US",Grampian,-2.3932806181883666,57.37610585497129
E08000014,Sefton,Port of Liverpool - wind,Mersey Docks and Harbour Company,Wind Onshore,4,2.5,"Alexandra Dock, Port of Liverpool, Regent Road, Bootle",Merseyside,-3.00495823591484,53.449598067055334
S12000020,Moray,Rothes Wind (Cairn Uish),Natural Power Consultants,Wind Onshore,22,2.3,"Cairn Uish, 10km south of Elgin,  Moray",Grampian,-3.362957508939726,57.53726375019279
S12000026,Scottish Borders,Crystal Rig Extension II,Natural Power Consultants,Wind Onshore,9,2.3,Lammermuir Hills on the East Lothian Council/Scottish Borders Council border approximately 11km from Dunbar and 16.5km from Duns.,Borders,-2.5454918200065446,55.91288749112602
S12000026,Scottish Borders,Glenkerie Wind Farm,Novera Energy,Wind Onshore,11,2,"Kingledores Farm, Broughton, Biggar, Strathclyde. ML12 6QL",Borders,-3.420495060455995,55.538523293313105
E06000011,East Riding of Yorkshire,Lissett Airfield Wind Farm,Novera Energy,Wind Onshore,12,2.5,"1.5km west of Lisset, East Yorkshire",Humberside,-0.2885281977124712,54.0070762449378
S12000034,Aberdeenshire,Methlick Farmers Wind Energy Project,Orkney Sustainable Energy,Wind Onshore,6,2,"Methlick, Aberdeenshire",Grampian,-2.243110818042024,57.42761498094317
W06000008,Ceredigion,Rheidol Wind Farm,Powergen,Wind Onshore,8,0.3,"Rheidol Wind Farm, Banc Bwa Drain, Goginan, Aberystwyth",Dyfed,-3.8772282090321126,52.407581025054455
S12000035,Argyll and Bute,Deucheran Hill,Powergen Renewables,Wind Onshore,9,1.75,"Deucheran Hill
Nr. Muasdale",Strathclyde,-5.544010040741151,55.62928097720908
W06000023,Powys,Bryn Du,Renewable Development Company Ltd,Wind Onshore,39,0.42,"Bryn Du Hills, South Of A44 At Pont Rydgaled, Powys, (LLangurig area)",Powys,-3.7069605350451353,52.41465849014156
N09000009,Mid Ulster,Lendrum's Bridge Wind Farm ( Extension 2),Renewable Energy Systems (RES),Wind Onshore,11,0.66,"Lendrum's Bridge
Murley RoadFivemiletown
County Tyrone",Co. Tyrone,-7.148895825518737,54.39383709570099
N09000009,Mid Ulster,Lendrum's Bridge Wind Farm,Renewable Energy Systems (RES),Wind Onshore,9,0.66,"Lendrum's Bridge
Murley Road, Fivemiletown
County Tyrone",Co. Tyrone,-7.18339769850416,54.39265401471365
S12000026,Scottish Borders,Dun Law,Renewable Energy Systems (RES),Wind Onshore,26,0.66,"Dun Law, 5km north west of Oxton, Lammermuir Hills",Borders,-2.8460315652527375,55.8064571532497
S12000026,Scottish Borders,Black Hill (Borders),Renewable Energy Systems (RES),Wind Onshore,22,1.3,"Longformacus
Duns
Berwickshire",Borders,-2.4322436910170286,55.799227912476894
N09000004,Causeway Coast and Glens,Altahullion,Renewable Energy Systems (RES) / BP Energy,Wind Onshore,20,1.3,"Alta Hullion Drum
Dun Given
Co. Londonderry",Co. Derry / Londonderry,-7.034105755486409,54.962578933747814
E06000052,Cornwall,Four Burrows Wind Farm,Renewable Energy Systems (RES),Wind Onshore,15,0.3,"Blackwater, Truro, Cornwall",Cornwall,-5.1373614562746885,50.28894301738888
S12000026,Scottish Borders,Dun Law Extension,Renewable Energy Systems (RES),Wind Onshore,35,0.85,Dun Law (between Fala and Carfraemill 20 miles S-E of Edinburgh,Borders,-2.842304376517719,55.78679587978672
S12000048,Perth and Kinross,Lochelbank Wind Farm II,RWE npower,Wind Onshore,12,0.8,"North of Glenfarg, Perth, Tayside",Tayside,-3.432879138325294,56.30541008555068
S12000035,Argyll and Bute,Cruach Mhor,Scottish Power Renewables,Wind Onshore,35,0.95,"Cruach Mhor, Cowal, Glen Dareul, Agyll, Bute",Strathclyde,-5.155930389142329,56.03904290768617
W06000004,Denbighshire,Wern Ddu Wind Farm,Tegni,Wind Onshore,4,2.3,"NW Corwen, Gwyddelwern, Corwen, Denbighshire",Clwyd,-3.4059316995505142,53.02546825185769
S12000029,South Lanarkshire,Hagshaw Hill Wind Farm,Trigen,Wind Onshore,13,0.6,The site lies 4km west of Douglas,Strathclyde,-3.92032525058706,55.555369862682696
S12000034,Aberdeenshire,Muirake,Vento Ludens,Wind Onshore,2,2.3,"Cornhill, Banff, Grampian. AB45 2BQ",Grampian,-2.724395438555094,57.611359933502335
S12000017,Highland,Millennium Extension,West Coast Energy /Falck Renewables,Wind Onshore,4,2.5,"Millennium Windfarm
on The Achlain and Invergarry amd Aberchalder Estates
Glengarry Invergarry
Inverness-Shire",Highland,-4.891170685923514,57.15020001193859
E07000169,Selby,Rusholme Wind Farm,EDF/China General Nuclear Power Corporation,Wind Onshore,12,2,"Newland Wind Farm, Land at Pease Farm, Rushmere Grange, Newland",North Yorkshire,-0.9480233954943676,53.730274955005605
S12000026,Scottish Borders,Longpark,Wind Prospect,Wind Onshore,19,2,Stow,Borders,-2.8274693854793154,55.66916069526463
E06000047,County Durham,Walkway,Wind Prospect,Wind Onshore,7,2,Sedgefield,County Durham,-1.396905880462342,54.66358093453823
E07000010,Fenland,Coldham,Wind Prospect / TXU,Wind Onshore,8,2,"Cws Coldham Estate, March, Cambridgeshire",Cambridgeshire,0.0950879931374957,52.59724548314142
E07000011,Huntingdonshire,Red Tile,Wind Prospect Developments,Wind Onshore,12,2,"Land Adjacent to Broadpool Farm
High Fen Straight Drove
Warboys
Huntingdon",Cambridgeshire,-0.029242926238853346,52.43053272180982
E07000140,South Holland,Deeping St Nicholas Wind Farm,Wind Prospect Developments,Wind Onshore,8,2,"Vine House Farm Worths Farm and Porters Farm, Deeping St Nicholas",Lincolnshire,-0.2256835081108528,52.73259200110068
E07000029,Copeland,Lowca Wind Farm,Windprospect,Wind Onshore,7,0.67,"Lowca
Near Workington
Cumbria",Cumbria,-3.5710105424923126,54.59736842322585
E07000029,Copeland,Fairfield Farm,Windprospect,Wind Onshore,5,1.3,"Fairfield Farm, Pica, Distington",Cumbria,-3.520380833409292,54.57877221695263
E07000029,Copeland,Haverigg Repowering (Haverigg II),Windprospect,Wind Onshore,5,0.22,Kirksanton Airfield Part of Hemplands Farm Haverigg Millom Cumbria,Cumbria,-3.3245331577353623,54.20395425770603
S12000017,Highland,Beinneun Windfarm Extension,Octopus Investments/Blue Energy,Wind Onshore,7,3.4,8km west of Invergarry,Highland,-4.965481047078889,57.095605803530056
S12000006,Dumfries and Galloway,Ewe Hill (extension),Scottish Power Renewables,Wind Onshore,16,2.3,Near Langham and Lockerbie,Dumfries and Galloway,-3.3338689795196914,55.10709221706526
E06000011,East Riding of Yorkshire,Melton Common Wind Cluster,Seneca Global Energy,Wind Onshore,2,2.5,Land South West Of Melton Waste Park Gibson Lane South Melton,Humberside,-0.5389161056775315,53.71439892883501
S12000017,Highland,Moy Wind Farm (2nd Application),Eneco,Wind Onshore,20,3.3,"Tomatin, Invernessshire",Highland,-4.048801273033511,57.38883375254894
S12000030,Stirling,Rosehill Wind Turbines,Green Cat Renewables,Wind Onshore,3,0.8,Land Some 550 Metres East Of Rosehill Rosehill Road Tower Plean,Stirling,-3.828063050280963,56.05498296460021
E08000017,Doncaster,Twin Rivers,NTR,Wind Onshore,14,2.05,"Moor Lane, Whitgift, East Riding of Yorkshire",Humberside,-0.9050362429897694,53.60818380959787
E06000057,Northumberland,Blyth Harbour Wind Farm,Border Wind Farms Ltd,Wind Onshore,9,0.3,"Blyth Harbour
North Blyth
Cambois
Bedlington
Northumberland",Northumberland,-1.4951909213048766,55.12543827448606
W06000016,Rhondda Cynon Taf,Penrhys Wind Farm/Ferndale Power Factory,John Laing Environmental Assets Group,Wind Onshore,8,0.8,"Penrhys
Rhondda
Mid Glamorgan",Mid Glamorgan,-3.451169837172873,51.65111448815072
S12000017,Highland,Gordonbush,Scottish and Southern Energy (SSE),Wind Onshore,35,2,"Gordonbush Estate, Brora, Sutherland, Highlands",Highland,-3.9590510483295027,58.059495017871654
E06000023,"Bristol, City of",Avonmouth Wind Power,Wessex Water Engineering Services,Wind Onshore,4,2.05,"Bristol Sewage Treatment Work, Bristol, BS11 0YS",Avon,-2.6734973354054814,51.51152720408623
S12000034,Aberdeenshire,Gordonstown Hill Wind Farm,Ventient (formerly Infinis),Wind Onshore,5,2.5,"Gordonstown Hill Kirkton Of Auchterless, Turiff, Grampian, AB53 8BG",Grampian,-2.4827606935747837,57.46192107232462
S12000029,South Lanarkshire,The Rosti Factory,Branna Industrial & Technical Services Ltd,Wind Onshore,1,2.2,"Middleton Avenue, Strutherhil Industrial Estate, Larkhill, Strathclyde. ML9 2TL",Strathclyde,-3.9606195023686688,55.72465998741403
S12000017,Highland,Ben Aketil Extension,Ben Aketil Wind Energy Ltd,Wind Onshore,2,2.3,"Near Dunvegan, Isle of Skye. IV55 8",Highland,-6.458341100842846,57.42980814867901
S12000013,Na h-Eileanan Siar,Lochcarnan Community Windfarm,Storas Uibhist,Wind Onshore,3,2.3,"Lochcarnan, Isle of South Uist. HS8 5",Western Isles,-7.347880863991489,57.233744833108716
E07000140,South Holland,The Grange Wind Farm,Renewable Energy Systems (RES),Wind Onshore,7,2,"Middle Road, Tydd St. Mary, Wisbech, Cambridge",Lincolnshire,0.16615695022570334,52.75061804335078
E07000203,Mid Suffolk,Humphrey Group,Roy Humphrey Group,Wind Onshore,2,2.5,"Eye Airfield Industrial Estate, Ipswich Road, Brome, Eye, Suffolk, IP23 8AW",Suffolk,1.1266249036616265,52.33668720644272
E07000196,South Staffordshire,Rodbaston,REG Windpower,Wind Onshore,2,2,"Rodbaston, Farm Drive, Rodbaston Campus, Stafford",Staffordshire,-2.117223301962662,52.70241926608864
E06000047,County Durham,Boundary Lane,EDF,Wind Onshore,3,2,"Shotley Quarter, Whittonstall, Nr Consett, Co Durham. DH8 9",County Durham,-1.9282068805579053,54.847809361345725
S12000029,South Lanarkshire,Nutberry Wind Farm,NA,Wind Onshore,6,2.5,"Cumberhead, Lesmahagow, Lanark, Strathclyde. ML11 0HN",Strathclyde,-3.9215920772238277,55.59949473864573
E08000018,Rotherham,Penny Hill Lane,Banks Renewables,Wind Onshore,6,3.3,"Ulley, Sheffield, South Yorks. S26 3YA",South Yorkshire,-1.2974963508145787,53.383421877920966
N09000009,Mid Ulster,Magherafelt,Tobermore Concrete Products,Wind Onshore,1,1,"2 Lisnamuck Road, Tobermore, Magherafelt, Co Londonderry. BT45 5QF",Co. Derry / Londonderry,-6.647715770484374,54.7690453550701
N09000008,Mid and East Antrim,The Michelin Tyre Factory - Ballymena,Ecotricity,Wind Onshore,2,2.3,"Raceview Road, Broughshane, Woodside Road, Ballymena, Co Antrim. BT42 4J",Co. Antrim,-6.198619719617808,54.87280576006698
S12000034,Aberdeenshire,West Knock Wind Cluster,West Knock Farm,Wind Onshore,3,0.8,"Mintlaw, Stuartfield, Peterhead, Grampian. AB42 5DJ",Grampian,-2.026777303232861,57.49377901498621
E07000131,Harborough,Low Spinney Wind Farm,"Infinis, previously Broadview Energy Developments",Wind Onshore,4,2,"Gilmorton Lane, Ashby Magnor, Lutterworth, Leicestershire. LE17 5NB",Leicestershire,-1.1791643191165495,52.502397006145536
S12000047,Fife,Westfield,Ventient (formerly Infinis),Wind Onshore,5,2.5,"Near Kingassie, Lochgelly, Fife. KY5 0J",Fife,-3.2949303664494956,56.14528536063644
E07000131,Harborough,Swinford Wind Farm,Nuon UK,Wind Onshore,11,0.4,"Lutterworth Road, Swinford, Lutterworth, Leicestershire. LE17 6BA",Leicestershire,-1.1663198827453645,52.4118834397971
E07000010,Fenland,Burnt House Farm,Fivestone Ltd,Wind Onshore,3,2,"Burnt House Road, Whittlesey, Burnthouse Sidings, Peterborough, Cambs",Cambridgeshire,-0.03372694113186714,52.5372533692463
S12000029,South Lanarkshire,Calder Water Community Wind Farm,Community Windpower (Community Wind Power),Wind Onshore,14,2,"Harshaw Hill, Drumclog, Strathaven, Strathclyde. ML10 6QN",Strathclyde,-4.211863127976678,55.63743559161936
S12000021,North Ayrshire,Millour Hill Community Windfarm,Community Windpower,Wind Onshore,6,3,"Baidland Hill,",Strathclyde,-4.775047387006576,55.730721885858806
S12000020,Moray,Netherton of Windyhills,Strathdee Energy,Wind Onshore,2,2.3,"Grange Crossroads, Keith, Grampian",Grampian,-2.855897026739985,57.60274965619779
S12000023,Orkney Islands,Gallowhill,Private Developer,Wind Onshore,2,0.9,"West Manse, Westray, KW17 2DR",Orkney Islands,-2.9821831490756225,59.27656218833373
E06000050,Cheshire West and Chester,Frodsham Marsh,Foresight/Belltown,Wind Onshore,19,2.65,Land between Manchester Ship Canal and M56,Cheshire,-2.7688585873174527,53.30061770023507
W06000010,Carmarthenshire,Brechfa Forest West,RWE Npower Renewables,Wind Onshore,28,2.05,"centred around the Afon Pib Valley, east of Alltwalis and the second area around Banc Llywelau, south of Rhydcymerau.",Dyfed,-4.123373226909781,51.96064219183833
S12000034,Aberdeenshire,Greenhill Croft,Green Cat Renewables,Wind Onshore,2,2.3,"Bonnykelly, New Pitsligo, Fraserburgh, Grampian",Grampian,-2.2010649323274483,57.59461112199873
E07000130,Charnwood,Severn Trent STW,Severn Trent Water,Wind Onshore,1,2.5,"Fillingate, Wanlip, Leicester",Leicestershire,-1.1178774584742,52.69804717071994
E06000011,East Riding of Yorkshire,Spaldington Airfield,Falck Renewables,Wind Onshore,5,2.5,"Holme Road, Spaldington, East Riding, Yorkshire. DN14 7NB",Humberside,-0.7997747359130761,53.79521796736141
S12000034,Aberdeenshire,Hillhead of Auquhirie,Octopus Investements/Blue Energy (previously Auquhirie Land Company Ltd),Wind Onshore,3,2.3,"Hillhead of Auquhirie, Stonehaven",Grampian,-3.177207776319353,56.95519547641126
S12000011,East Renfrewshire,Middleton Wind Farm,Scottish Power Renewables,Wind Onshore,6,2,"East Refrewshire, G77 6",Strathclyde,-4.342616461661332,55.77513705150824
E07000128,Wyre,Orchard End,Renewable Energy Generation,Wind Onshore,2,2,"land at Orchard End, near Pilling, Eagland Hill, Preston",Lancashire,-2.865678880889899,53.900138040160066
W06000016,Rhondda Cynon Taf,Mynydd Bwllfa Wind Farm - Resubmission,Pennant Walters,Wind Onshore,9,2.5,South of Hirwaun,Mid Glamorgan,-3.509847324117712,51.714711569935865
W06000023,Powys,Tirgwynt,Foresight,Wind Onshore,12,2.05,"Mynydd yr Hendre & Mynydd Pistyll Du Near Carno, Powys",Powys,-3.4791018004511316,52.61050772691963
W06000023,Powys,Garreg Lwyd,Renewables Infrastructure Group (TRIG),Wind Onshore,23,2,"Garreg Lwyd Hill Between Felindre & Llanbadarn Fynydd, Llandrindod Wells, Powys",Powys,-3.2840677829471585,52.413068393102726
N09000009,Mid Ulster,Crockbrack,Gaelectric Developments/ CGN Europe Energy,Wind Onshore,1,2,"(north of Loughmarve Road and west of Gortscraheen Road, with access via Loughmallon Road), Limehill, Pomeroy, County Tyrone.",Co. Tyrone,-6.955172482437015,54.614492548184096
N09000001,Antrim and Newtownabbey,Connaught Road,Lowlands Health & Energy Ltd ,Wind Onshore,2,0.85,"Approx 130m NW of 44 Connaught Road, Randalstown",Co. Antrim,-6.307106327678817,54.76605283890944
N09000006,Fermanagh and Omagh,Crockagarron Ext,Northern Wind Power ,Wind Onshore,1,2.5,"Lands to the East of Whitebridge Road and South of Gleneeny Road, on lands at Crockagarron in the Townland of Gleneeny, Co Tyrone.",Co. Tyrone,-7.009023535896296,54.55156991065426
S12000034,Aberdeenshire,Castle of Auchry Farm,Green Cat Renewables,Wind Onshore,3,0.8,"Cuminestown, Turriff, Aberdeenshire",Grampian,-2.4476852147227706,57.28276283991576
S12000034,Aberdeenshire,Little Byth,Lovie Ltd,Wind Onshore,3,1.5,"New Byth, Turriff. AB53 5XR",Grampian,-2.290093669825149,57.60698637320974
S12000034,Aberdeenshire,Yonderton Farm,Green Cat Renewables,Wind Onshore,2,0.5,"Hatton, Peterhead, Aberdeenshire",Grampian,-1.9418958169446268,57.43083685274389
W06000018,Caerphilly,Oakdale Business Park,Resonance,Wind Onshore,2,2,"Blackwood, Gwent",Gwent,-3.1713939230777983,51.68691489121153
E06000062,West Northamptonshire,Boddington Reservoir,NA,Wind Onshore,1,1.5,"Upper Boddington, Northamptonshire. NN1",Northamptonshire,-1.279318144881002,52.17416400368305
E07000113,Swale,HMP Standford Hill,Resonance,Wind Onshore,2,2.3,"Standford Hill, Church Road, Eastchurch, Sheerness",Kent,0.8508755272963309,51.39495773408245
E07000082,Stroud,Sharpness Docks,Partnerships for Renewables/AGR,Wind Onshore,1,2,"Dock Lane, Sharpness, Berkley, Gloucestershire",Gloucestershire,-2.482868029036603,51.72372806851119
E06000011,East Riding of Yorkshire,Sancton Hill,REG Windpower (previously Cornwall Light and Power),Wind Onshore,5,2,"nr Market Weighton, Sancton, York,",Humberside,-0.6099286851880023,53.84512265440913
E07000113,Swale,Port of Sheerness Wind Farm (was Lappel Bank),Peel Energy,Wind Onshore,4,2.05,"Sheerness Docks, Sheerness, Kent",Kent,0.7478733027214267,51.443045639161845
E07000175,Newark and Sherwood,Stonish Hill (Bilsthorpe),REG Power Management (John Laing/Peel Energy),Wind Onshore,5,2,Former Bilsthorpe Colliery Eakring Road Bilsthorpe,Nottinghamshire,-1.0145679854061675,53.15105776825986
E07000010,Fenland,Stags Holt Extension,E.ON UK,Wind Onshore,1,2,"Franks Farm, Stags Holt, Coldham Bank Road, March, Cambridgeshire, PE15 0BS",Cambridgeshire,0.1232914174246108,52.56976887267601
S12000027,Shetland Islands,North Yell Wind Farm (Garth Community Wind Farm),Garth Wind (North Yell Development Council),Wind Onshore,5,0.9,"Garth, near Gurcher, Yell, Shetland Islands. ZE2 9DF",Shetland,-1.0051646238743204,60.66610768315664
S12000017,Highland,Glenurquhart and Strathglass Wind Farm project,Corrimony Energy Ltd & Soirbheas,Wind Onshore,5,2,"Hill Ground At Corrimony Farm, Glenurquhart, Inverness",Highland,-4.751101720895592,57.27908271090726
S12000050,North Lanarkshire,Damhead Farm,Private Developer,Wind Onshore,1,2.5,"Land At Damhead Farm Bowhouse Road Airdrie North Lanarkshire, ML6 8PW",Strathclyde,-3.933494291047609,55.85390784698297
E07000120,Hyndburn,Hyndburn Wind Farm,Energiekontor UK,Wind Onshore,12,2,Hyndburn Wind Farm on Oswaldtwistle Moor,Lancashire,-2.3889967624072215,53.71431304557691
E06000011,East Riding of Yorkshire,Tedder Hill Wind cluster,Ventient (formerly Infinis),Wind Onshore,3,2.5,"near Roos, East Riding of Yorkshire",Humberside,-0.02652278193165847,53.75228094227311
E06000057,Northumberland,Lynemouth Windfarm (Resubmission),Scottish Power Renewables,Wind Onshore,13,2,"Land adjacent to Rio Tinto Alcan Smelter, Lynemouth (2km north of Ashington)",Northumberland,-1.5396342529850073,55.20158190999713
E06000057,Northumberland,Wingates Wind Farm,Ventient (formerly Infinis),Wind Onshore,6,2.5,"Wingates, Longhorsley, Morpeth, Northampronshire. NE65 8",Northumberland,-1.796387901933919,55.27525392207928
S12000017,Highland,Wathegar wind farm,Private Developer,Wind Onshore,5,2,"Land At Wathegar Bilbster, Wick, Caithness",Highland,-3.2256847803928967,58.439286300593785
S12000035,Argyll and Bute,Allt Dearg Wind Farmers LLP,Ormsary and Stronachullin Estates (Allt Dearg Wind Farmers LLP),Wind Onshore,12,0.9,"Cruach a'Phubuill, 9km south of Ardishaig, South Knapdale, Argyll",Strathclyde,-5.477371164938089,55.93343464395872
E07000117,Burnley,Hameldon Hill extension,RWE NPower Renewables,Wind Onshore,3,2.5,"Hameldon Hill, Accrington Road, Burnley, Lancashire",Lancashire,-2.3062260253570415,53.77099847374024
E07000133,Melton,Dalby,Ecotricity,Wind Onshore,9,0.8,"Paddys Lane, Old Dalby, Melton Mowbray, Leicestershire",Leicestershire,-1.0342572100069007,52.806496883670015
E07000010,Fenland,Glass moor Extension,EDF/China General Nuclear Power Corporation,Wind Onshore,6,2,"S/E Of Yewtree Farm, Glassmoor Bank, Whittlesey, Cambridge, Cambridgeshire",Cambridgeshire,-0.108802791482311,52.518561438873505
S12000035,Argyll and Bute,Cour Wind Farm,Octopus Investments/Blue Energy,Wind Onshore,10,2.1,"Carradale
Argyll And Bute",Strathclyde,-5.484928577654593,55.68067907193874
S12000034,Aberdeenshire,Upper Wheedlemont Farm,J & A Wilson Ltd,Wind Onshore,2,0.85,"Rhynie
Huntly
",Grampian,-2.87524504115367,57.32332677841944
S12000034,Aberdeenshire,Shielburn Farm,Green Cat Renewables,Wind Onshore,3,2.3,"Newton Of Fortrie, Fortrie
Turriff
AB53 4HL",Grampian,-2.5419604271824747,57.499776059679725
S12000017,Highland,Beinneun,Octopus Investments/Blue Energy,Wind Onshore,25,3.4,8km west of Invergarry,Highland,-4.965481047078889,57.095605803530056
E06000004,Stockton-on-Tees,Seamer Wind Farm - Hambleton,"Infinis, previously Broadview Energy",Wind Onshore,2,2,"Land Adjacent Hilton Road, Seamer, Middlesbrough",Cleveland,-1.2623963838979242,54.49586705438186
E07000121,Lancaster,Fanny House Farm/Heysham Moss,Blue Energy,Wind Onshore,1,1.5,"Oxcliffe Road, Heaton With Oxcliffe, Morecambe, Lancashire",Lancashire,-2.8718994359920735,54.037924257758156
E07000172,Broxtowe,Newthorpe Wind Turbine,Severn Trent Water,Wind Onshore,1,2.5,"Sewage Treatment Works, Halls Lane, Giltbrook, Nottinghamshire",Nottinghamshire,-1.2979272884885504,52.99877339799129
E06000061,North Northamptonshire,Chelveston Renewable Energy Park Wind Farm (Bedford),Chelveston Renewable Energy Ltd,Wind Onshore,4,2.5,"Chelveston Airfield, East Northamptonshore",Northamptonshire,-0.5372930559349136,52.307640006453276
S12000050,North Lanarkshire,Torrance Farm,Future Spectrum Ltd,Wind Onshore,3,3,"Blairmuckhill Road, Harthill, North Lanarkshire",Strathclyde,-3.7460804270363797,55.87179886342245
S12000034,Aberdeenshire,Land at Overside and Greenwellheads Farms,Greenside Wind Energy Ltd,Wind Onshore,4,2.3,"Crimond, Fraserburgh, AB42 3HJ",Grampian,-1.8992629175211153,57.58223703419502
E07000121,Lancaster,Lancaster University (wind),Lancaster University,Wind Onshore,1,2,"Bailrigg Lane, Lancaster, Lancashire",Lancashire,-2.7795395264028104,54.007217932722604
S12000020,Moray,Myreton Crossroads,Seren Energy,Wind Onshore,2,0.8,Keith Moray AB55 6NJ,Grampian,-2.842540289425755,57.598976831962496
S12000034,Aberdeenshire,Auchinderran Wind Farm,Green Cat Renewables,Wind Onshore,3,0.8,"Auchinderran Farm, Aberchirder, Aberdeenshire",Grampian,-2.6468391119125076,57.581356622206506
E06000011,East Riding of Yorkshire,The Limes Wind Turbines,Broadview Energy,Wind Onshore,2,0.85,"to the west of Staithes Road at Salt End, Hull.",Humberside,-0.23482794316159264,53.75175441718453
S12000034,Aberdeenshire,Milton of Fisherie Wind Cluster,LocoGen,Wind Onshore,2,2.3,"King Edward, Banff AB45 3PX",Grampian,-2.4190537661317655,57.620403455095676
S12000029,South Lanarkshire,Blantyre Muir Wind Farm,Blantyre Muir Wind Energy Ltd ,Wind Onshore,3,3,Near Laigh Muirhouses Farm Muttonhole Road Hamilton ,Strathclyde,-4.0900005525205865,55.74160586076006
E06000062,West Northamptonshire,Lilbourne Wind Farm,Cetis,Wind Onshore,5,2,"Lilbourne Fields Farm & Lilbourne Lodge Farm, Yelvertoft Road, Lilbourne, Northamptonshire",Northamptonshire,-1.1669166573491752,52.39424864237209
S12000034,Aberdeenshire,Tullo Wind Farm North Extension (Shiels Wind Farm),Eneco,Wind Onshore,3,2.5,Laurencekirk,Grampian,-2.4101216596856303,56.84399767109919
S12000034,Aberdeenshire,Easter Melrose Wind Energy Project,Melrose Farms,Wind Onshore,3,0.5,"Gamrie, Banff",Grampian,-2.4175068670879725,57.66064973865067
E07000137,East Lindsey,Newton Marsh Wind Project,TCI Renewables,Wind Onshore,2,2.3,"Newton Marsh Sewage Treatment Works, Tetney, North-East Lincolnshire",Lincolnshire,0.0090104467334674691,53.50928837345263
E07000143,Breckland,North Pickenham Airfield,Bernard Matthews Green Energy,Wind Onshore,2,2,"North Pickenham Road, Breckland",Norfolk,0.7335086877392809,52.625563810994024
E07000026,Allerdale,Wythegill Wind Turbine,Airvolution Energy,Wind Onshore,1,2.3,"Land at Wythegill Syke, Seaton, Workington, Cumbria",Cumbria,-3.5230893342213325,54.674125211924256
E06000011,East Riding of Yorkshire,Roos Wind Farm (Resubmission),Renewable Energy Systems (RES),Wind Onshore,9,1.9,Land To The West Of Ivy House Rectory Road Roos East Riding Of Yorkshire,Humberside,-0.0696997788955655,53.751752594899266
S12000034,Aberdeenshire,Backhill of Yonderton Wind Cluster,Private Developer,Wind Onshore,2,2.3,"Backhill Of Yonderton
Craigston
 Turriff
 AB53 5PT",Grampian,-2.4166458120482313,57.58701465207521
S12000023,Orkney Islands,Spurness Wind Farm Repowering,Scottish and Southern Energy (SSE),Wind Onshore,5,2,"Spurness, Sanday",Orkney Islands,-2.6925172392806958,59.18929522515641
S12000034,Aberdeenshire,St Johns Wells Wind Cluster Extension,Green Cat Renewables,Wind Onshore,4,0.8,"St Johns Wells, Fyvie, Turriff AB53 8PX",Grampian,-2.3352801582876674,57.41824098359546
S12000021,North Ayrshire,GlaxoSmithKline Wind Project,Glaxosmithkline,Wind Onshore,3,2.5,Shewalton Road Riverside Business Park Irvine Ayrshire,Strathclyde,-4.633876291976412,55.597914851846795
E07000146,King's Lynn and West Norfolk,K L Technologies Wind Turbine,KL Technology Limited,Wind Onshore,1,1.5,K L Technology Ltd Estuary Road King's Lynn Norfolk PE30 2HS,Norfolk,0.38574647834654396,52.771175040243875
S12000017,Highland,Coire Na Cloiche Wind Farm,RockbySea,Wind Onshore,13,2.3,"Land At Sidhean A'Choin Bhain, Strathrusdale, Alness",Highland,-4.373160505979298,57.76961921131164
N09000004,Causeway Coast and Glens,Altaveedan Wind Farm,NTR PLC,Wind Onshore,6,2.35,"in the townlands of Shelton South, Aldorough, Altaveedan North, Altaveedan South and Turnavedog near Loughguile, Co Antrim",Co. Antrim,-6.2577505007965195,55.08465524010353
N09000004,Causeway Coast and Glens,Corkey Wind Farm Extension,Northern Ireland Renewables,Wind Onshore,1,2.5,"583m north of 42 Reservoir Road, Knockagallen, Corkey.",Co. Antrim,-6.279719691845964,55.04449601879006
S12000011,East Renfrewshire,Ardoch and Over Enoch Wind Farm (Over Enoch),2020 Renewables/ NTR,Wind Onshore,2,2.3,"Over Enoch Road, Eaglesham, East Renfrewshire",Strathclyde,-4.252091812959898,55.71015074804972
W06000001,Isle of Anglesey,Ystgellog Farm Wind Farm,Airvolution Energy,Wind Onshore,2,2.3,"Ysgellog Farm, Rhosgoch, Builth Wells, Powys, LD2",Gwynedd,-4.400309700524137,53.39381008384975
S12000011,East Renfrewshire,NEILSTON WIND FARM,Renewables Infrastructure Group,Wind Onshore,4,2.3,"N/w Of Nether Carswell Farm, Drumgrain Tip, Kingston Road, Neilston, Glasgow, Strathclyde, G44",Strathclyde,-4.466721428113095,55.754129540248066
E06000047,County Durham,Greencroft Estate Turbines,Lanchester Properties,Wind Onshore,2,2,"Land to east of Greencroft Estates, Tower Road, Annfield Plain, Stanley",County Durham,-1.748665456279816,54.84970965221859
E09000004,Bexley,Crossness Sewage Works Turbine,Thames Water Utilities,Wind Onshore,1,2.5,"Belvedere Road, London",London,0.14212581996591278,51.50216774564786
S12000029,South Lanarkshire,Muirhall Extension,Muirhall Energy,Wind Onshore,2,3.4,"Stellashaw Moss, South Lanarkshire",Strathclyde,-3.6055463372514467,55.758392204620215
N09000005,Derry City and Strabane,Clondermot Turbines,Energia Renewables,Wind Onshore,2,2.3,"Trench Road, Derry",Co. Derry / Londonderry,-7.312910543376059,54.96789186794051
S12000035,Argyll and Bute,Freasdail Wind Farm,The Renewables Infrastructure Group (TRIG),Wind Onshore,11,2,Land East Of Loch Freasdail And North Of Loch Cruinn Whitehouse By Tarbert Argyll And Bute,Strathclyde,-5.470638736814854,55.777010553933046
W06000022,Newport,Nash Waste Water Treatment Works Turbine,Welsh Water,Wind Onshore,1,2.5,"West Nash Road, Nash NP18 2YH",Gwent,-2.9590729638980013,51.551107921257675
E06000056,Central Bedfordshire,Marston Vale Country Park Wind Turbine,Blue Energy,Wind Onshore,1,1.5,"The Marston Vale Millennium Country Park, Station Road, Marston Moretaine, Bedford, MK43 0PR",Bedfordshire,-0.5353973411421683,52.06465808448634
E06000010,"Kingston upon Hull, City of",Energy Works Hull - Wind Turbine,Spencer Group,Wind Onshore,1,3,"Cleveland Street (former Adm Cocoa Plant), Dalton Street, Kingston Upon Hull, Humberside",Humberside,-0.3304002258151529,53.75853532311629
W06000012,Neath Port Talbot,Mynydd Y Gwrhyd Windfarm,Awel Aman Tawe Community Energy,Wind Onshore,2,2.35,Mynydd Y Gwrhyd,West Glamorgan,-3.847238645963587,51.77840129655246
E07000173,Gedling,Severn Trent Water - Stoke Bardolph Wind Turbine,Severn Trent Water,Wind Onshore,1,2.5,"Stoke Lane, Stoke, Bardolph, Nottinghamshire",Nottinghamshire,-1.0439660635494907,52.97577902203545
S12000023,Orkney Islands,Barns of Ayre Wind Turbines (2),Ayre Energy/Aquatera Ltd,Wind Onshore,2,0.9,"Deerness, Orkney",Orkney Islands,-2.7156493936194726,58.92171768462033
W06000013,Bridgend,Newton Down,Renewable Energy Partnerships Ltd,Wind Onshore,2,2,Bridgend,Mid Glamorgan,-3.669010004433503,51.502231015657294
E06000057,Northumberland,North Steads Wind Farm,Ventient (formerly Infinis),Wind Onshore,9,3,Situated between Widdrington and Red Row to the west of the A1068,Northumberland,-1.6247740014827947,55.26503502541755
S12000034,Aberdeenshire,Hill of Tillymorgan (Kirkton Farm) Wind turbines,LocoGen/ Green Cat Renewables,Wind Onshore,3,3.2,"Hill of Tillymorgan, Culsalmond, Insch",Grampian,-2.6103614479566195,57.34413254301258
S12000029,South Lanarkshire,LADEHEAD FARM - WIND TURBINES,PI Renewables 2 Ltd,Wind Onshore,3,1.3,Ladehead Farm Lesmahagow,Strathclyde,-3.9221163364590503,55.649463563725284
E06000052,Cornwall,Garlenick Estate 2 - Wind Turbines,Airvolution Energy,Wind Onshore,2,2,Garlenick Estate Grampound Cornwall,Cornwall,-4.885054987982519,50.30693591557819
E06000052,Cornwall,Goonabarn Farm Wind Turbines,George Richards Farms Partnership,Wind Onshore,2,0.5,Goonabarn Farm Summercourt Newquay Cornwall TR8 5BL,Cornwall,-4.960596057281792,50.349670724847144
E07000145,Great Yarmouth,Bloodhills - repowering,The Farm Energy Partnership LLP,Wind Onshore,2,0.5,"Bloodhills Farm, Bloodhills East Somerton Great Yarmouth NR29 4DU",Norfolk,1.6644214073685406,52.70697801112527
S12000011,East Renfrewshire,Ardoch and Over Enoch Wind Farm (Ardoch),2020 Renewables/ NTR,Wind Onshore,3,2.5,"Ardoch Farm, Over Enoch Road, Eaglesham, East Renfrewshire",Strathclyde,-4.253708672965079,55.71998050917197
E06000023,"Bristol, City of",Avonmouth Port II,Bristol City Council - Energy Management Unit,Wind Onshore,2,2.5,"Former Shell Tanker Site
Severn Road
Avonmouth
Bristol",Avon,-2.6738643100251194,51.53833794330007
E08000017,Doncaster,Tween Bridge Windfarm,E.ON Renewables,Wind Onshore,22,2,"Tween Bridge, Thorne, Doncaster, South Yorks",South Yorkshire,-0.9355902145925464,53.62230198878349
W06000016,Rhondda Cynon Taf,Mynydd Portref,Gresham House,Wind Onshore,11,0.85,"N of Brynna, E of existing Taff Ely Wind Farm",Mid Glamorgan,-3.4597357047926947,51.55639480319496
W06000013,Bridgend,Fforch Nest Wind Farm pt2,Pennant Walters,Wind Onshore,7,2.5,"Mynydd Maesteg and Mynydd Pwllyrhebog, Ogmore and Rhondda Valleys",Mid Glamorgan,-3.4959571970808394,51.60649169741984
N09000006,Fermanagh and Omagh,Gortfinbar,Energia Renewables,Wind Onshore,6,2.5,"Sixmilecross/Carrickmore, Omagh",Co. Tyrone,-7.0197014765237995,54.543999681991714
N09000001,Antrim and Newtownabbey,Carn Hill,Gaelectric Developments/ CGN Europe Energy,Wind Onshore,6,2.3,"Lands north of Slievetrue Road, Carn Hill/Rea Hill, Newtownabbey, Co Antrim",Co. Antrim,-5.911801499820508,54.731296825553976
E07000012,South Cambridgeshire,Wadlow Wind Farm,DIF,Wind Onshore,13,2,"Nr West Wratting, South Cambridgeshire",Cambridgeshire,0.3160471817664649,52.1660105186889
E07000074,Maldon,Bradwell Wind Farm (Repower),Npower Renewables,Wind Onshore,10,2,"Bradwell on Sea, Maldon",Essex,0.8210429846401599,51.709835273021604
E08000016,Barnsley,Hazlehead,Banks Renewables,Wind Onshore,3,2,"to the rear of Hepworth's factory, Crow Edge",South Yorkshire,-1.7311982470799803,53.531589745683334
E06000057,Northumberland,Kiln Pit Hill Windfarm,Npower Renewables,Wind Onshore,6,2,"land to the east of A68, approx 1km SE of Kiln Pit Hill",Northumberland,-1.9143906439896101,54.88596549003633
E06000052,Cornwall,Otterham Down Wind Farm,Otter Power,Wind Onshore,4,0.8,"Otterham, Camelford",Cornwall,-4.610326803472088,50.68489176536688
E06000011,East Riding of Yorkshire,Sixpenny Wood Windfarm,Greencoat UK Wind,Wind Onshore,10,3.3,"Between Eastrington, Gilberdyke, Kilpin and Laxton",Humberside,-0.8113817436072052,53.73798639496661
E07000076,Tendring,Earl's Hall,Greencoat UK Wind,Wind Onshore,5,2.05,"Earls Hall Farm, Clacton on Sea, Essex",Essex,1.1108980015070415,51.809183592124704
E07000118,Chorley,Mawdesley Moss,Private Developer,Wind Onshore,3,0.75,"Cliff Farm
Mawdesley Moss
Chorley
Lancashire",Lancashire,-2.780298292067513,53.6334757645609
E06000061,North Northamptonshire,Chelveston Renewable Energy Park Wind Farm (East Northamptonshire),Chelveston Renewable Energy,Wind Onshore,5,2.5,"Chelveston Airfield
East Northamptonshore",Northamptonshire,-0.5365964763338839,52.301184857811506
E06000057,Northumberland,Bewick Drift,Harworth Power,Wind Onshore,1,2.3,Land at former Lynemouth coal handling store north of existing Lynemouth Power Station,Northumberland,-1.5571580997486651,55.21522449666322
E06000011,East Riding of Yorkshire,Hall Farm Routh,John Laing Environmental Assets Group/REG Power Management,Wind Onshore,12,2.05,"Land North Of, Hall Farm Acc Rd To Crowshore Plantation, Routh, East Riding Of Yorkshire, HU17 9SL",Humberside,-0.36087915047332714,53.873665102145026
S12000020,Moray,Rothes Wind Farm (Extension) (II),Fred Olsen Renewables,Wind Onshore,18,2.3,"Rothes Windfarm, at Cairn Uish near Elgin",Grampian,-3.362957508939726,57.53726375019279
N09000004,Causeway Coast and Glens,Glenconway,Airtricity,Wind Onshore,8,2.3,"Land at Glenconway Hill off Baranailt Road, (Adjacent to Loughermore Forest and north of Altahullion windfarm), Limavady.",Co. Derry / Londonderry,-7.029608757454995,54.975992638734155
N09000004,Causeway Coast and Glens,Glenconway 2 (formerly Altahullion Phase III),Scottish and Southern Energy (SSE),Wind Onshore,12,2.3,"Altahullion Phase III Wind Farm in the townlands of Drum, Glenconway and Ballymoney, near Dungiven",Co. Derry / Londonderry,-7.034783392035551,54.97047812574787
W06000016,Rhondda Cynon Taf,Fforch Nest Wind Farm pt1,Pennant Walters,Wind Onshore,4,2.5,Land North of Glynogwr,Mid Glamorgan,-3.494661336401579,51.611004205487774
E08000017,Doncaster,Hampole Wind Farm,Good Energy (previously nPower Renewables),Wind Onshore,4,2,"Land Near Hampole Wood
Hampole
Doncaster",South Yorkshire,-1.254956924145632,53.57658199560625
E08000016,Barnsley,Blackstone Edge,Ventient (formerly Infinis),Wind Onshore,3,2.5,"Blackstone Edge, Penistone",South Yorkshire,-1.7062246284686742,53.54331482680485
N09000004,Causeway Coast and Glens,Glenbuck,Energia Renewables,Wind Onshore,4,2.3,"Glenbuck, Dunloy",Co. Antrim,-6.41242074840638,55.01009186087857
N09000004,Causeway Coast and Glens,Glenbuck II,Energia,Wind Onshore,5,3,Glenbuck,Co. Antrim,-6.41242074840638,55.01009186087857
E08000017,Doncaster,Marr Windfarm,Banks Renewables,Wind Onshore,4,2,"Marr, South Yorkshire",South Yorkshire,-1.2397137170055372,53.533035456804136
E08000024,Sunderland,Nissan Motors Plant Extn,TNEI Services Ltd,Wind Onshore,3,0.6,"Nissan Motors Plant, Sunderland, Tyne and Wear",Tyne and Wear,-1.480759663563157,54.913886254360484
S12000034,Aberdeenshire,Hill of Fiddes,"Infinis, previously Broadview Energy",Wind Onshore,3,2.3,"Hill of Fiddes
Udny Station
Cultercullen",Grampian,-2.1096246702815873,57.31089224802981
N09000004,Causeway Coast and Glens,Dunmore,TCI Renewables,Wind Onshore,7,3,"Town land of Dunmore approximately eight kilometres north east of Limavady, County Londonderry",Co. Derry / Londonderry,-6.8889537930096845,55.06872840587333
E07000011,Huntingdonshire,Cotton Farm,Greencoat UK Wind,Wind Onshore,8,2.5,"Land between Graveley, Offord Darcy and Great Paxton",Cambridgeshire,-0.19523882601778045,52.26153031085006
E07000026,Allerdale,Land at Flimby Hall Farm,Flimby Wind Energy Ltd,Wind Onshore,3,2.05,"Flimby, Maryport,",Cumbria,-3.5139714380034555,54.687073909433124
E06000052,Cornwall,Carland Cross Wind Farm Repowering,Scottish Power Renewables,Wind Onshore,10,2,"Carland Cross, Mitchell, Truro",Cornwall,-5.0305873325454336,50.350879640406355
E06000062,West Northamptonshire,Yelvertoft Wind Farm,Greencoat UK Wind,Wind Onshore,8,2,"Land Adjacent Glebe Farm, Hillmorton Lane, Yelvertoft (Access Off Rugby Road, Crick), Northamptonshire",Northamptonshire,-1.1511098190341478,52.37477999206554
S12000034,Aberdeenshire,Mains of Hatton,Eco2 /GreenCAT,Wind Onshore,3,0.8,"Kirktown of Auchterless
Aberdeenshire",Grampian,-2.066687665476805,57.61529637910062
S12000008,East Ayrshire,Whitelee Windfarm Extension Phase 1,Scottish Power Renewables,Wind Onshore,36,3,"Eaglesham Moor, to the south of Glasgow",Strathclyde,-4.286777643353905,55.6771536270315
E06000034,Thurrock,Tilbury Docks,Scottish Equity Partners,Wind Onshore,4,3,"Installed from the Dock entrance along to the GradeII listed Cruise Terminal, Tilbury Docks, Tilbury",Essex,0.3368486134530492,51.45728692503873
E06000004,Stockton-on-Tees,Seamer Windfarm - Stockton on Tees,Broadview Energy,Wind Onshore,3,2,Between the villages of Hilton and Seamer on the Stockton-on-Tees and North Yorkshire boundaries.,County Durham,-1.2585208221826603,54.49417174727331
E06000047,County Durham,South Sharpley Wind Farm (Revised),REG Windpower (previously  Cornwall Light & Power),Wind Onshore,3,2.5,"South Sharpley Farm, near Seaham, County Durham",County Durham,-1.4022141584693324,54.84042028404191
E07000031,South Lakeland,Armistead Wind Farm,Banks Renewables,Wind Onshore,6,2,"Land to the east of Crosslands Farm, near Old Hutton, Kendal South Lakeland, LA6 2QJ",Cumbria,-2.638819534092031,54.276049995173835
E06000011,East Riding of Yorkshire,Withernwick,Energiekontor UK,Wind Onshore,9,2,"Land North And North East
Homer House
Aldbrough Road
Withernwick
East Riding Of Yorkshire",Humberside,-0.17256622316615075,53.84568568369656
S12000013,Na h-Eileanan Siar,Loch Sminig Wind Project,Urras Oighreachd Ghabhsainn,Wind Onshore,3,0.9,"Either side of the road between Baile an Truiseil and Upper Barvas, Stornoway, Isle of Lewis, HS2 0QX",Western Isles,-6.493020518964537,58.38355582884693
E06000011,East Riding of Yorkshire,Burton Pidsea (Wadworth Hill) Wind Farm,Aeolian Holderness Ltd,Wind Onshore,3,3.4,"Land North East Of
Wadworth Hill House
Greens Lane
Burton Pidsea
East Riding Of Yorkshire",Humberside,-0.11348195930101564,53.74919558419588
S12000017,Highland,Camster,E.ON UK,Wind Onshore,25,2,"Lower Camster
Lybster
Caithness",Highland,-3.271514446984195,58.4086507665401
S12000023,Orkney Islands,Bu Farm,Longearth Ltd/ Farm Energy,Wind Onshore,3,0.9,"Rothiesholm, Bu Farm, Stronsay, Orkney",Orkney Islands,-2.660078974138682,59.097252646145435
S12000048,Perth and Kinross,Drumderg,Scottish and Southern Energy (SSE),Wind Onshore,16,2.3,"Drumderg Hill
Near Alyth
Perth",Tayside,-3.232012263899362,56.62224632055707
S12000029,South Lanarkshire,Clyde Wind Farm,Scottish and Southern Energy (SSE)/ Greencoat UK Wind,Wind Onshore,152,2.3,"Clyde Wind farm, Lowther Hills, between Crawford and Nether Howecleuch,
NW of Lockerbie",Strathclyde,-3.542734237680517,55.44163408233998
S12000017,Highland,Novar Wind Farm (Extension),RWE npower,Wind Onshore,16,2.3,"Novar Estate
Evanton
Ross-shire",Highland,-4.426956444746046,57.7099866660903
S12000020,Moray,Hill of Towie (Drummuir),Renewable Energy Systems (RES),Wind Onshore,21,2.3,"Hill of Towie, Knockan and McHattie's Cairn, Drummuir, Keith, Banffshire, Moray",Grampian,-3.341046113585473,57.62284105863536
S12000006,Dumfries and Galloway,Ewe Hill,Scottish Power Renewables,Wind Onshore,6,2.3,"Near Langham and Lockerbie
Dumfries",Dumfries and Galloway,-3.3338689795196914,55.10709221706526
E06000057,Northumberland,Middlemoor,Npower Renewables,Wind Onshore,18,3,"North Charlton
Alnwick
Northumberland",Northumberland,-1.7678381454563226,55.4986391308472
S12000017,Highland,Baillie Wind Farm,Baillie Windfarm Ltd,Wind Onshore,21,2.5,"Bardnaheigh, Westfield, Thurso",Highland,-3.6770209864280043,58.56792108721409
W06000002,Gwynedd,Braich Ddu,REG Windpower (previously Cornwall Light and Power),Wind Onshore,3,1.3,"Braich Ddu, Glanrafon Y Bala, Gwynedd",Gwynedd,-3.9575838374674865,52.59509415607109
S12000026,Scottish Borders,Drone Hill,Greencoat UK Wind,Wind Onshore,22,1.3,"Coldingham
East Berwickshire",Borders,-2.2619287288976966,55.89788731848601
S12000035,Argyll and Bute,Tangy Wind Farm Extension/Tangy 2,Scottish and Southern Energy (SSE),Wind Onshore,7,0.85,"Kilkenzie, Campbelltown",Strathclyde,-5.530459773169252,55.478615198358185
E06000057,Northumberland,Ray Wind Farm,Vattenfall,Wind Onshore,16,3.5,"Kirkwhelpington, Newcastle-upon-Tyne, Tyne and Wear",Northumberland,-2.0714215103852496,55.18221927830672
S12000048,Perth and Kinross,Calliachar,Scottish and Southern Energy (SSE),Wind Onshore,14,2.3,"Nr Aberfeldy, Amulree",Tayside,-3.876077856797993,56.62767898602949
S12000048,Perth and Kinross,Griffin Wind farm,Greenpower (Griffin) Ltd,Wind Onshore,52,3,Griffin Forest,Tayside,-3.7337523701724784,56.58122252243299
E07000026,Allerdale,High Pow Farm,REG Windpower (previously Cornwall Light and Power),Wind Onshore,3,1.3,"High Pow Farm, Boltons Low Houses, Nr. Wigton,",Cumbria,-3.1911983334653393,54.78953648033848
S12000034,Aberdeenshire,St. Johns Hill,K E Projects AF,Wind Onshore,9,2.8,"Chapel of Barras
nr Kinneff, 
South of Stonehaven",Grampian,-2.272420296668396,56.88857286190645
S12000006,Dumfries and Galloway,Blackcraig,Blue Energy,Wind Onshore,23,3,"Blackcraig Hill, 6km NE of Balmaclellan",Dumfries and Galloway,-4.0321180807000685,55.11991239799601
E07000043,North Devon,Fullabrook Down Wind Farm,Devon Wind Power Ltd,Wind Onshore,22,3,"Fullabrook Down, Crackaway, Barton",Devon,-4.102655774514964,51.15694596555403
S12000047,Fife,Little Raith Farm,Renewables Infrastructure Group,Wind Onshore,9,2.8,"South of A92
Nr Loch Gelly",Fife,-3.252158728826452,56.119354432658426
W06000013,Bridgend,Pant y wal,Pennant Wind Energy Ventures (PWEV),Wind Onshore,10,2.5,"Mynydd Maesteg, Mynydd Pwlle yr Helog, Ogmore Vale, Rhondda Valley",Mid Glamorgan,-3.505034560759575,51.61285886848837
N09000005,Derry City and Strabane,Crighshane,Greencoat (formerly Energia Renewables),Wind Onshore,14,2,"Crighshane, South of Ballymongan Road, Killeter, Castlederg",Co. Tyrone,-7.752574712969343,54.63986653966474
N09000005,Derry City and Strabane,Townlands of Carrickatane,Northern Wind Power,Wind Onshore,9,2.3,"Townlands of Carrickatane, Castlemellan, Cullion, Gortmellan & Taboe Glebe (Co. Tyrone) and Tirkeeveny & Killymallaght (Co. Derry), accessing onto Gortmellon Road, Cullion, BT47 3TA",Co. Derry / Londonderry,-7.199703966211002,54.89489475586352
E06000057,Northumberland,Green Rigg,EDF/China General Nuclear Power Corporation,Wind Onshore,18,2,Near the A68 and Sweethope Lough,Northumberland,-2.127009822343565,55.13230203639853
N09000005,Derry City and Strabane,Church Hill,Greencoat (formerly Energia Renewables),Wind Onshore,8,2,"Church Hill, Meenamullan Road, Killeter, Castlederg, and Magherakeel, Killeter, Castlederg, Co Tyrone.",Co. Tyrone,-7.712814979189822,54.65399677274787
N09000006,Fermanagh and Omagh,Crockagarran,ESB,Wind Onshore,6,2.5,"Lands to the East of Whitebridge Road and South of Gleneeny Road, on lands at Crockagarron in the Townland of Gleneeny, Co Tyrone.",Co. Tyrone,-7.016810799167739,54.55019365117639
S12000017,Highland,Rosehall Hill Forest Windfarm,E.ON UK,Wind Onshore,19,1.3,"Lairg, Highlands. IV27 4EU",Highland,-4.546950243728645,57.99562477643569
N09000006,Fermanagh and Omagh,Thornog Windfarm,Energia Renewables,Wind Onshore,4,2.3,"Thornog, 
Meenadoan townland, 
Drumquin. 
Co Tyrone",Co. Tyrone,-7.559610888480186,54.60639593458442
N09000006,Fermanagh and Omagh,Slieve Divena Phase 2 Wind Farm,Scottish and Southern Energy (SSE),Wind Onshore,8,2.5,"Slieve Divena Wind Farm Phase II in the townlands of Altcloghfin, Altamuskin and Shantavny Irish, Co Tyrone",Co. Tyrone,-7.106399976818087,54.508596735302305
S12000029,South Lanarkshire,Bankend Rig,I & H Brown Ltd,Wind Onshore,11,1.3,Near Dungavel Reservoir,Strathclyde,-4.134221209656178,55.57827150940525
S12000034,Aberdeenshire,Hill of Easterton Extension,Mackies,Wind Onshore,2,1,"Hill of Easterton, 1km North Of Mackies Ice Cream Dairy, Westertown, Rothienorman, Inverurie, AB51 8US",Grampian,-2.3932806181883666,57.37610585497129
E07000043,North Devon,Batsworthy Cross,Blackrock Real Assets,Wind Onshore,9,2,"Batsworthy Cross, Creacombe, North Devon",Devon,-3.6891128127042343,50.971687898652085
N09000005,Derry City and Strabane,Slieve Kirk,Airtricity,Wind Onshore,12,2.3,"Lands bounded by Bigwood Road, Kildoag Road & Castlewarren Road, within the townlands of Lisdillon, Kildoag in Co Derry, Knockbrack, Gosheden, Lackagh, Ardground, Legagh in Co Tyrone",Co. Tyrone,-7.288902661015142,54.920299862156625
S12000026,Scottish Borders,Fallago Rig,EDF Energy Renewables,Wind Onshore,48,3,Lammermuir Hills,Borders,-2.688027687587587,55.83130753143636
S12000049,Glasgow City,Cathkin Braes Wind Farm (Castlemilk),Scottish and Southern Energy (SSE),Wind Onshore,1,3,Site At Cathkin Braes/ Cathkin Road Carmunnock Glasgow,Strathclyde,-4.215310966407748,55.797126989695386
W06000012,Neath Port Talbot,Mynydd y Betws,ESB (Cambrian Renewable Energy Ltd / Betws Common Holdings Ltd),Wind Onshore,15,2.3,"Mynydd y Betws, Betws, Ammanford",Dyfed,-3.9290363114263873,51.772824702381065
S12000041,Angus,Ark Hill,Green Cat Renewables,Wind Onshore,8,0.8,"Chamberwells, Glamis, Tayside",Tayside,-3.0480579919844684,56.57092395236859
S12000013,Na h-Eileanan Siar,Pentland Road Wind Farm,Arnish Electric Ltd / Farm Energy Ltd,Wind Onshore,6,2.3,"Pentland Road, Isle of Lewis",Western Isles,-6.510773625246344,58.25719649171651
N09000006,Fermanagh and Omagh,Slieveglass,Slieveglass wind farm (Energia),Wind Onshore,3,2.3,"Bullock Park, Drumquin, Co. Tyrone",Co. Tyrone,-7.569239949735478,54.63549261307304
N09000006,Fermanagh and Omagh,Molly Mountain,Erne Concrete Pumping,Wind Onshore,5,3,Land at Molly Mountain near Derrylin,Co. Fermanagh,-7.636503300136311,54.19792098703525
E07000074,Maldon,Turncole Wind Farm,RES/ Aviva,Wind Onshore,7,2,"Turncole Farm, The Marshes, Southminster, Essex",Essex,0.8677614889550065,51.65150307491184
E06000015,Derby,Derby Sewage Treatment Works,Severn Trent Water,Wind Onshore,2,3.4,"Megaloughton Lane, Spondon, Derby",Derbyshire,-1.4131266561399742,52.908146457585445
E06000013,North Lincolnshire,Grange,Octopus Investements/Blue Energy,Wind Onshore,6,2.05,"Grange Farmhouse, Land adjacent to, Flixborough",Humberside,-0.700121316372762,53.63791854594352
E06000011,East Riding of Yorkshire,Goole Fields ll Wind Farm,RWE Npower Renewables,Wind Onshore,17,2.05,"approximately 2km south of Old Goole, immediately to the west of the consented Goole Fields Wind Farm.",Humberside,-0.8868023015766807,53.67677911724425
S12000020,Moray,Edintore Wind Farm,Vento Ludens,Wind Onshore,6,3,"Edintore, Keith, Moray",Grampian,-2.96253424650793,57.505676005746906
S12000028,South Ayrshire,Tralorg Wind Farm,RPMI Railpen (formerly BayWa),Wind Onshore,8,2.5,2km to the east of Girvan,Strathclyde,-4.8061708857371155,55.2497706457218
S12000027,Shetland Islands,Gremista Wind Farm,Shetland Aerogenerators,Wind Onshore,1,3,"Luggies Knowe, Gremista, Lerwick",Shetland,-1.1671176568388182,60.19242627855018
E07000011,Huntingdonshire,Common Barn Wind Farm,TCI Renewables,Wind Onshore,3,3,"Church Farm, Southoe, Huntingdonshire",Cambridgeshire,-0.2877075861019222,52.277347677190775
S12000047,Fife,Clentrie Wind Farm (Gevens),Rev Ltd,Wind Onshore,3,2.3,"Clentrie Farm, Fife",Fife,-3.2526362075832758,56.11771426306917
N09000006,Fermanagh and Omagh,Thornog Windfarm Extension,Energia Renewables,Wind Onshore,4,2.3,"Thornog, 
Meenadoan townland, 
Drumquin. 
Co Tyrone",Co. Tyrone,-7.559610888480186,54.60639593458442
E06000062,West Northamptonshire,Kelmarsh Wind Farm (Resubmission),Blue Energy,Wind Onshore,5,2.5,"Land To The South Of The A14 And North Of Haselbech, Kelmarsh, Northamptonshire",Northamptonshire,-0.9597649959622729,52.40283884315519
S12000050,North Lanarkshire,Torrance Farm Wind Park Extension,Capital Dynamics,Wind Onshore,2,3,NETHERTON FARM Westcraigs Road Harthill Shotts North Lanarkshire,Strathclyde,-3.7452393597722353,55.87656460351284
S12000047,Fife,Goathill Quarry Turbine,Collier Quarrying Group,Wind Onshore,1,2,Goathill Quarry Easter Bucklyvie Cowdenbeath Fife,Fife,-3.320256650062225,56.08636054892276
S12000047,Fife,Skeddoway Farm Wind Turbine,Clenergy,Wind Onshore,1,1.5,Skeddoway Farm Strathore Road Strathore Thornton,Fife,-3.159339173079226,56.16650730098417
S12000047,Fife,Middle Balbeggie Wind Turbines,Capital Dynamics,Wind Onshore,2,3.2,Land Surrounding Middle Balbeggie Balbeggie Avenue Balbeggie Thornton Fife,Fife,-3.164491306525496,56.15369995191153
E07000244,East Suffolk,Upper Holton Wind Farm,Temporis Capital,Wind Onshore,5,2.3,"Wind Farm, Upper Holton, Holton, Suffolk",Suffolk,1.5311326698679388,52.36649114835456
E07000026,Allerdale,Tallentire Hill,The Renewables Infrastructure Group (TRIG),Wind Onshore,6,2,"Hill Farm, Cockermouth, Cumbria. CA13 0PY",Cumbria,-3.359500225253109,54.706880674519624
N09000006,Fermanagh and Omagh,Pollnalaght (Cornavarrow),Energia,Wind Onshore,12,3.2,"Pollnalaght, Drumquin, Co Tyrone",Co. Tyrone,-7.441023274627118,54.568311121626266
N09000001,Antrim and Newtownabbey,Seegronan,Seegronan Windfarm,Wind Onshore,6,2.3,"Killeter, Strabane, Co Tyrone",Co. Tyrone,-6.300004703044524,54.63333168156997
S12000034,Aberdeenshire,Meikle Carewe,The Renewables Infrastructure Group (TRIG),Wind Onshore,12,0.85,"Rickarton Farms, Stonehaven,",Grampian,-2.2783136864447826,57.01881816610309
S12000029,South Lanarkshire,Andershaw,Statkraft UK,Wind Onshore,14,2.5,Andershaw Forest South of Douglas,Strathclyde,-3.8462637410043143,55.50932640838777
N09000009,Mid Ulster,Eshmore,Energia Renewables,Wind Onshore,3,2.3,"Crockanavark, Eshmore and Altaglushan Townlands , Galbally, Dungannon. Co Tyrone",Co. Tyrone,-6.94295754601642,54.55055077013539
N09000006,Fermanagh and Omagh,Castlecraig,Renewable Energy Systems (RES),Wind Onshore,10,2.5,"Castlecraig (Slieve Glass) in Castlecraig, Sloughan, Killoan and Curraghmacall townlands. The proposed site is approximately 5 km south of Killen and 5 km west of Drumquin beside Lough Hill.",Co. Tyrone,-7.587211356476059,54.630890886919
E07000134,North West Leicestershire,East Midlands Airport,Wind Direct,Wind Onshore,4,0.25,"Castle Donington, Leicestershire",Leicestershire,-1.342652393974707,52.82619762854882
S12000034,Aberdeenshire,Kildrummy Windfarm,Greencoat UK Wind/Bay Wa .r.e/ SunGift,Wind Onshore,8,2.3,"Clashnarae Hill, Kildrummy, Alford",Grampian,-2.7029307288333957,57.22529717860071
E06000055,Bedford,Airfield Farm (Podington),Airvolution Energy,Wind Onshore,3,2,"Airfield Farm, adjacent to Santa Pod raceway, Podington, Wellingborough",Bedfordshire,-0.6088792166936285,52.2362715479296
S12000017,Highland,Dunmaglass Wind Farm,Scottish and Southern Energy (SSE),Wind Onshore,33,3,"Dunmaglass, Highlands, SW of Inverness",Highland,-4.255802337851775,57.25148006944491
S12000006,Dumfries and Galloway,Harestanes,Scottish Power Renewables,Wind Onshore,68,2,Mofatt Village Dumfries and Galloway,Dumfries and Galloway,-3.574197586877193,55.239029213040105
S12000017,Highland,Corriemoillie,EDF Energy Renewables,Wind Onshore,17,3.2,Garve,Highland,-4.773018029760208,57.66872565617344
S12000017,Highland,Hill of Stroupster Windfarm,Greencoat UK Wind,Wind Onshore,12,2.5,"Stroupster, Caithness",Highland,-3.1323773904582604,58.579264596042165
S12000017,Highland,Burn of Whilk,RWE npower,Wind Onshore,9,2.5,"Burn of Whilk
Hill of Yarrows
Caithness",Highland,-3.2038537369304145,58.35675889549074
S12000017,Highland,Lochluichart,Eneco,Wind Onshore,17,3,"Loch Luichart, Garve",Highland,-4.816701149722273,57.654594170394944
N09000005,Derry City and Strabane,Tievenameenta,Scottish and Southern Energy (SSE),Wind Onshore,15,2.3,"Tievenameenta, Co Tyrone (townlands of Crigshane, Ballymongan, Shanaghy, Tievenameenta, Crighdenis)",Co. Tyrone,-7.59100591699807,54.70499971086097
S12000014,Falkirk,Burnhead,Wind Prospect Developments/ EDF,Wind Onshore,13,2,"S/Of Stoneridge, Falkirk,",Stirling,-3.7748347335883965,55.91207805852042
S12000034,Aberdeenshire,Easter Tolmauds,Frank A Smart & Son Ltd,Wind Onshore,2,0.8,"Easter Tolmauds, Torphins, Banchory, Grampian",Grampian,-2.6219052865518906,57.15703931498146
W06000016,Rhondda Cynon Taf,Maerdy,Greencoat UK Wind,Wind Onshore,8,3,"land NW of Maerdy and NE of Treherbert, Rhigos",Mid Glamorgan,-3.5179364735327394,51.69777452303902
N09000006,Fermanagh and Omagh,Altamuskin,Altamuskin Windfarm (Energia),Wind Onshore,3,2.35,"Altamooskan (Altamuskin) TD, Sixmilecross, Omagh, Co. Tyrone.",Co. Tyrone,-7.094612095482738,54.522197097155704
E06000052,Cornwall,Woodlands Barton Wind Project,Private Developer,Wind Onshore,2,2.3,Nr Roche St Austell Cornwall,Cornwall,-4.814113130058647,50.42531742894459
E07000026,Allerdale,Westnewton,NA,Wind Onshore,3,2.05,"Warwick Hall Farm, Westnewton, Cumbria. CA7 3PF",Cumbria,-3.346309165295614,54.77950203958305
N09000004,Causeway Coast and Glens,Windyhill Road (Dunbeg) Wind Farm,Gaelectric Developments/ CGN Europe Energy,Wind Onshore,14,3,"Picnic Area, Dunbeg Townland, Limavady, Co Londonderry. BT45",Co. Derry / Londonderry,-6.888612090463271,55.08042972875792
N09000004,Causeway Coast and Glens,Cloonty Wind Farm,Gaelectric Developments/ CGN Europe Energy,Wind Onshore,4,3,"122 Castlecat Road Derry Keighan, Cloonty Townland, Ballymoney, Co Antrim. BT53 8AP",Co. Antrim,-6.395821666168315,55.11849216075446
N09000006,Fermanagh and Omagh,Curraghamulkin (Dooish Wind Farm),DW Consultancy,Wind Onshore,10,3,"Coolavannagh TD, Curraghmulkin TD, Dooish TD, Drumquin",Co. Tyrone,-7.514138305203558,54.57782620156766
N09000006,Fermanagh and Omagh,Teiges,Energia,Wind Onshore,5,2.2,"Eshnanumera and Eshnasillog More townlands (adjacent to Lisnaskea Forest), Brookeborough TD, Co. Fermanagh",Co. Fermanagh,-7.398529096453004,54.3031006419415
N09000005,Derry City and Strabane,Monnaboy Wind Farm,Gaelectric Developments/ CGN Europe Energy,Wind Onshore,4,2.5,"on land located east of 62 Monnaboy Road, Greysteel",Co. Derry / Londonderry,-7.134074959976912,54.97913918075924
N09000009,Mid Ulster,Crockandun,Brookfield Renewable Energy Group,Wind Onshore,6,2.5,"approximately 450m west south-west of junction of Cullion Road and Drumard Road, Draperstown, Magherafelt.",Co. Derry / Londonderry,-6.771874068948223,54.739481411722906
S12000008,East Ayrshire,Hare Hill Extension,Scottish Power Renewables,Wind Onshore,35,0.85,"New Cumnock, East Ayreshire",Strathclyde,-4.12628273504079,55.36280437392024
E06000023,"Bristol, City of",Avonmouth Port - extension,Bristol Port Company,Wind Onshore,3,3,"St Andrews House, St Andrew's Rd, Avonmouth, Bristol, Avon",Avon,-2.698799124828583,51.50290906100263
E06000057,Northumberland,Barmoor South Wind Farm,EDF,Wind Onshore,6,2.3,Between Ford And Lowick Bowsden Berwick-upon-Tweed,Northumberland,-2.0250875614880552,55.63729276907627
E06000062,West Northamptonshire,Winwick,Blue Energy,Wind Onshore,6,2.3,"Land To North and West Of Winwick Warren, Cold Ashby Road, Winwick, Northampton, Northamptonshire, NN6",Northamptonshire,-1.062238436201658,52.36574736568593
E06000057,Northumberland,Sisters,Infinis (formerly Novera Energy),Wind Onshore,4,2.05,"west of Widdrington, approximately 8km north of Ashington, Northumberland",Northumberland,-1.6182471056349053,55.24987366287595
E07000046,Torridge,East Youlstone Wind Farm,Airvolution Energy,Wind Onshore,2,2,"East Youlstone, Devon",Devon,-4.446500144892994,50.91726891560846
S12000034,Aberdeenshire,Hill of Skilmafilly Cloffrickford (Denmore) Wind Farm,SAC Environment And Design,Wind Onshore,3,2.3,"Auchnagatt, Ellon, AB41 8YD",Grampian,-2.164743837362445,57.453450142452915
E07000121,Lancaster,Heysham South Wind Farm,Banks Renewables,Wind Onshore,3,2.5,"Lancaster Morecambe Bypass, Heaton With Oxcliffe, Lancashire",Lancashire,-2.8649822284610518,54.03424424362481
E07000011,Huntingdonshire,Woolley Hill Wind Farm,Aviva,Wind Onshore,4,2.3,"North of the A14, between the villages of Ellington & Woolley",Cambridgeshire,-0.3079587151978191,52.339849765553254
E07000031,South Lakeland,Furness Wind Farm/High Winds (Harlock Repowering),Baywind Co-op & Energy4All & Belltown Power,Wind Onshore,5,2.3,"Standish Cote & Mean Moor, Pennington, Marton & Harlock Hill, Ulverston, Cumbria",Cumbria,-3.147584582084416,54.20914056216832
S12000029,South Lanarkshire,Clyde Wind Farm Extension (Clyde 2),Scottish and Southern Energy (SSE)/ GIB,Wind Onshore,54,3.2,"Upper Clyde Valley, surrounding Camps Reservoir",Strathclyde,-3.547901670328315,55.50414267238305
S12000026,Scottish Borders,Quixwood Moor,NTR PLC,Wind Onshore,13,2.3,Scottish Borders,Borders,-2.352658973506925,55.86739954617285
S12000035,Argyll and Bute,Auchadaduie Wind Farm,Fyne Futures,Wind Onshore,3,2.3,Land South Of Auchadaduie Barr Glen Glenbarr Kintyre,Strathclyde,-5.6601939400568675,55.54465916045218
W06000012,Neath Port Talbot,Mynydd Brombil Wind Farm,REG Windpower,Wind Onshore,4,2,"Brombil, Port Talbot",Neath Port Talbot,-3.7457391778348397,51.5829799586117
W06000016,Rhondda Cynon Taf,Mynydd Portref Wind Farm extension,REG Windpower,Wind Onshore,6,2,NA,Mid Glamorgan,-3.4496059062788276,51.56036900360753
W06000012,Neath Port Talbot,Longlands Lane,Renewable Energy Systems (RES),Wind Onshore,1,1.5,"Longlands Lane, Margam, 
nr junction 38 of the M4.",Gwent,-3.7478854469925462,51.56330882145468
S12000018,Inverclyde,Inverclyde Wind Farm (Corlic Hill),BayWa r.e. (formerly Forsa),Wind Onshore,8,3,"Corlic Hill, near Greenock & Port Glasgow",Strathclyde,-4.728912284524894,55.9184872623853
E07000035,Derbyshire Dales,Ryder Point Quarry Wind Turbines,Longcliffe Quarries,Wind Onshore,2,2.5,Ryder Point Quarry North Of Manystones Lane Brassington Derbyshire,Derbyshire,-1.6213573945777573,53.09160807060043
E06000061,North Northamptonshire,Burton Wold Wind Farm - Northern Extension,John Laing Environmental Assets Group,Wind Onshore,9,1.6,"Burton Wold Wind Farm, Wold Road, Burton Latimer",Northamptonshire,-0.651839695223258,52.361554124437596
S12000040,West Lothian,Pearie Law Wind Farm,EDF Energy Renewables,Wind Onshore,6,3.2,"Pearie Law, West Calder, West Lothian, EH55",Lothian,-3.5624061680158707,55.82052191617558
S12000050,North Lanarkshire,Greengairs East Wind Farm,Muirhall Energy,Wind Onshore,8,3,"N/o Easterton, Airdrie Road Caldercruix, Airdrie, Lanarkshire, ML6",Strathclyde,-3.912006838722236,55.901073447346
S12000010,East Lothian,Crystal Rig Wind Farm Phase III,Fred Olsen Renewables,Wind Onshore,6,2.3,"Crystal Rigg Wind Farm, Cranshaws Duns, Scottish Borders",Borders,-2.534479571986365,55.92641320134754
S12000040,West Lothian,Drumduff,Green Breeze Energy Ltd,Wind Onshore,3,2.83,"DRUMDUFF, BLACKRIDGE",Lothian,-3.778974020728073,55.90428999762997
S12000005,Clackmannanshire,Rhodders Wind Farm,EDF/Wind Prospect,Wind Onshore,6,2,Site West Of Burnfoot Hill Tillicoultry Clackmannanshire,Clackmannanshire,-3.7823927590780966,56.204209987218455
S12000040,West Lothian,Harburnhead Wind Farm,Gresham House,Wind Onshore,22,3,"West Calder, West Lothian",Lothian,-3.5321721583194177,55.808681202179464
E07000046,Torridge,Dunsland Cross Wind Farm,Temporis Capital,Wind Onshore,3,3,Land At Dunsland Cross South Of Brandis Corner Holsworthy Devon EX22 7YH,Devon,-4.259697100241611,50.807875037167804
E07000026,Allerdale,Potato Pot Wind Farm,Capital Dynamics,Wind Onshore,3,2,"Land at
Potato Pot
Branthwaite
Workington
Cumbria",Cumbria,-3.503098317014008,54.60272488709748
S12000021,North Ayrshire,Millour Hill Community Windfarm (Extension),Community Windpower,Wind Onshore,2,3.2,Site To North Of Baidland Hill Dalry Ayrshire,Strathclyde,-4.780905922737425,55.7358208742753
S12000029,South Lanarkshire,Blantyre Muir Wind Farm extension,West Coast Energy,Wind Onshore,3,2.5,Near Laigh Muirhouses Farm Muttonhole Road Hamilton ,Strathclyde,-4.0900005525205865,55.74160586076006
S12000020,Moray,Dorenell Wind Farm (Previously Site A and B Scaut Hill),EDF Energy Renewables/ Infinergy,Wind Onshore,59,3,"Glenlivet Estate, Dufftown, Speyside,  Moray",Grampian,-3.1316809157238916,57.350899489260705
N09000006,Fermanagh and Omagh,Inishative,Gaelectric Developments/ CGN Europe Energy,Wind Onshore,6,2.3,"Inishative Road, Sixmilecross, Omagh (Slievebeg. Land between Ballygawley and Pomeroy, approximately 1.5km north of Altmore Forest, Townland of Inishative)",Co. Tyrone,-7.009606355014689,54.56689650562894
N09000001,Antrim and Newtownabbey,Corby Knowe,Gaelectric Developments/ CGN Europe Energy,Wind Onshore,3,1.6,"Tardee Mountain, 7km North East of Antrim and 4km South East of Kells",Co. Antrim,-6.1778054788330765,54.790190973261474
S12000030,Stirling,Earlsburn North (Kingsburn) Wind Farm,Falck Renewables,Wind Onshore,9,2.5,"Earlsburn, Gargunnock Hills",Stirling,-4.123057793448921,56.089010175956446
E06000031,Peterborough,Wryde Croft,Renewable Energy Systems (RES),Wind Onshore,13,2,"Nutsgrove, South of Thorney.",Cambridgeshire,-0.03231935680442001,52.64219294465185
N09000004,Causeway Coast and Glens,Brockaghboy Wind Farm,Greencoat,Wind Onshore,15,2.5,"Land approximately 750m South East of Dowlin's Bridge, Drumbane Road, Garvagh, Coleraine, BT 51 5DR",Co. Derry / Londonderry,-6.7650281118787,54.980571041637376
E06000057,Northumberland,Wandylaw,Blue Energy,Wind Onshore,10,1.95,"The Ellingham Estate, 3.5km West of the Village of Ellingham",Northumberland,-1.764167198062185,55.51961309695525
S12000029,South Lanarkshire,Black Law Extension - 1a,Scottish Power Renewables,Wind Onshore,29,1.67,"Black Law, Climpy",Strathclyde,-3.762566605098417,55.76218897974121
N09000006,Fermanagh and Omagh,Crockbaravally Wind Farm,Golden Square Energy,Wind Onshore,3,2.5,"Whitebridge Road
Sixmilecross, Co. Tyrone
BT79 9EH",Co. Tyrone,-7.047741832329309,54.55297101719694
E07000137,East Lindsey,Bishopthorpe,Greencoat UK (formerly BayWa r.e.),Wind Onshore,8,2,"Bishopthorpe Farm, Bishopthorpe, Tetney, Grimsby, Humberside",Lincolnshire,-7.324148340233854e-4,53.50991922100107
E06000013,North Lincolnshire,Keadby Wind Farm,Scottish and Southern Energy (SSE),Wind Onshore,34,2,"Near Teadby
Near Scunthorpe
Lincolnshire",Humberside,-0.7636853474568743,53.61179606734911
S12000020,Moray,Berry Burn,Statkraft,Wind Onshore,29,2.3,"Adjacent to Paul's Hill Site
Altyre Estate
BallindalF",Grampian,-3.4753925365795815,57.44661103297983
S12000008,East Ayrshire,Afton Wind Farm,InfraRed Capital Partners/ E.on,Wind Onshore,25,2.75,To the south west of New Cumnock adjacent to Afton reservoir,Strathclyde,-4.17428302347659,55.31160019688639
S12000040,West Lothian,Tormywheel,BlackRock (formerly Muirhall Energy),Wind Onshore,15,2.6,Fauldhouse,Lothian,-3.6721085976421475,55.80480875786297
N09000005,Derry City and Strabane,Eglish Mountain,ESB (Northern Wind Power),Wind Onshore,6,2.3,"Eglish Mountain in the townlands of Ballyartan and Glenlough (Co. Derry) and Ballyneaner (Co. Tyrone), accessing onto Ballyartan Road, Killaloo, Londonderry BT47 3TA",Co. Tyrone,-7.2136143830224,54.88379522876778
E07000047,West Devon,Den Brook,Aviva,Wind Onshore,9,2,"Den Brook,
West Devon",Devon,-3.866606897335218,50.78012386067095
S12000028,South Ayrshire,Dersalloch,Scottish Power Renewables,Wind Onshore,23,3,Dersalloch Hill,Strathclyde,-4.488218013953557,55.3042571997225
S12000013,Na h-Eileanan Siar,Point Wind / Beinn Ghrideag Farm,Point Power & Energy Ltd / SgurrEnergy,Wind Onshore,3,3,Point Wind Farm Pentland Road To Achmore Achmore Isle Of Lewis,Western Isles,-6.480676648214493,58.20794631323562
S12000029,South Lanarkshire,Muirhall South,Muirhall Energy,Wind Onshore,3,3.2,"Stellashaw Moss, South Lanarkshire",Strathclyde,-3.6055463372514467,55.758392204620215
E06000056,Central Bedfordshire,Double Arches Quarry Wind Turbine,Arnold White Estates (AWE Renewables),Wind Onshore,1,1.5,Double Arches Quarry Eastern Way Heath And Reach Leighton Buzzard LU7 9LF,Bedfordshire,-0.63432807444721,51.9519081774417
S12000017,Highland,Lochend Wind Farm,Wind Harvest,Wind Onshore,4,2.3,Land 978M SE Of 2 Lochend Holding Barrock,Highland,-3.262943749565381,58.59506855147137
S12000017,Highland,Creag Riabhach Wind Farm,ERG,Wind Onshore,22,4.2,Creag Riabhach Lairg,Highland,-4.511210384197757,58.21930056281828
S12000050,North Lanarkshire,West Benhar wind farm,EDF Energy Renewables,Wind Onshore,8,3.4,West Benhar Wind Farm North Of Rimmon Cottage Benhar Road Shotts,Strathclyde,-3.7649603938486225,55.83629357188478
E07000028,Carlisle,Hallburn Farm,REG Windpower/ BlackRock,Wind Onshore,6,2.2,"Land at Hallburn Farm, Hallburn, Longtown, Carlisle,",Cumbria,-2.915342482237576,55.00957124756891
N09000006,Fermanagh and Omagh,Crockdun,ESB (Northern Wind Power),Wind Onshore,5,2.5,"214 Loughmacrory Road, Crockdun, Sixmilecross, Omagh, Co. Tyrone.",Co. Tyrone,-7.049404027384488,54.5688914540825
E07000117,Burnley,Coal Clough Wind Farm Repowering,Coal Clough Wind Farm,Wind Onshore,8,2,"Coal Clough Wind Farm,The Long Causeway, Burnley ",Lancashire,-2.149983685162335,53.74966189910283
N09000009,Mid Ulster,Shantavny Scotch,Tyrone Wind Energy Ltd,Wind Onshore,7,2,"Omagh Road, Ballygawley Co. Tyrone ",Co. Tyrone,-7.089966436946493,54.47661782268901
E07000065,Wealden,Shepham Lane,Foresight,Wind Onshore,3,2.5,"Land off Shepham Lane, North of A27, Polegate",East Sussex,0.2708840045218384,50.82947835272456
E06000011,East Riding of Yorkshire,Sober Hill Wind Farm,West Coast Energy,Wind Onshore,6,2.5,Land North Of Sober Hill Farm Stoneknowle Hill North Newbald,Humberside,-0.5967407798380306,53.8349467482966
S12000035,Argyll and Bute,Srondoire Community Wind Farm,Srondoire Wind Farmers LLP,Wind Onshore,3,2,"Cruach A Phubuill, Adj Allt Dearg Windfarm, Ardrishaig, Lochgilphead, Argyll, PA31 8PE",Strathclyde,-5.4805222304164305,55.93410079826433
S12000017,Highland,Achlachan Wind Farm,Whirlwind Renewables,Wind Onshore,5,2,Achlachan Windfarm Watten,Highland,-3.4545928788583224,58.44892061058484
S12000035,Argyll and Bute,A'Chruach (Phase 1),Infinis (formerly Novera Energy),Wind Onshore,21,2.3,"Land At A'Cruach
Kilmichael Forest
West Of Minard
Argyll",Strathclyde,-5.310216220516906,56.15276760132365
S12000010,East Lothian,"Aikengall II, Wester Dod Community Wind Farm",Community Windpower,Wind Onshore,19,3.2,East Lothian.,Lothian,-2.4900662877040944,55.91720873381596
E06000025,South Gloucestershire,Alveston Wind Park,Ecotricity,Wind Onshore,3,2.3,"Land off Old Gloucester Road, Nr Alveston, South Gloucestershire",Avon,-2.499917869932461,51.57229695558629
S12000029,South Lanarkshire,Auchrobert Wind Farm,Falck Renewables,Wind Onshore,12,2.5,South Lanarkshire ML11 0HP,Strathclyde,-3.9842108334803967,55.624002788892255
E07000010,Fenland,Boardinghouse Wind Farm,Ecogen,Wind Onshore,5,2.05,Knights End Road March Cambridgeshire,Cambridgeshire,0.060601815198549895,52.535073100527896
S12000034,Aberdeenshire,Bogenlea Farm,Eco2,Wind Onshore,1,2.3,"New Byth, Turriff. AB53 5UY",Grampian,-2.2999493815351397,57.56626396103208
S12000034,Aberdeenshire,BROWNIELEYS - 3 WIND TURBINES,Brownieleys Renewables/Muirden Energy,Wind Onshore,3,2.35,"Nw/O Brownieleys, Fordoun, Alford, Grampian, AB33 1JN",Grampian,-2.379147431997539,56.83990929236932
S12000034,Aberdeenshire,Cairnborrow,Engie (GDF Suez),Wind Onshore,5,2.5,Land at Cairnborrow Huntly,Grampian,-2.8992395662801425,57.46386908932942
E08000005,Rochdale,Crook Hill (Calderdale MBC) 1 of 2,Infrared Capital Partners,Wind Onshore,4,3.4,"Crook Hill/Shore Moor, North Of Watergrove Reservoir, Rochdale",Greater Manchester,-2.1116591078268985,53.66814583859763
S12000034,Aberdeenshire,Deuchries,Force 9 Energy / Catamount Energy/ Green Cat,Wind Onshore,3,2.3,"Deuchries Farm, Banff, Aberdeenshire",Grampian,-2.615707426680757,57.590656505342814
N09000009,Mid Ulster,Draperstown (Brackagh) Wind Farm,Renewable Energy Generation (REG),Wind Onshore,3,2,"Creagh Concrete Products Ltd, Brackagh Quarry, 29 Disert Road, Draperstown, Magherafelt",Co. Derry / Londonderry,-6.7081593492541485,54.81121593834395
S12000029,South Lanarkshire,Dungavel Hill,John Laing Environmental Assets Group,Wind Onshore,13,2.3,"Dungavel, Strathaven, Strathclyde",Strathclyde,-4.097746651693686,55.60858689388289
S12000047,Fife,Earlseat,The Renewables Infrastructure Group (TRIG),Wind Onshore,8,2.3,Earlseat Farm Standing Stane Road Kirkcaldy Fife KY1 4TH,Fife,-3.081323473121169,56.17365682275863
S12000034,Aberdeenshire,Easter Tulloch Wind Farm (Tullo Extension),N R Gammie Partnership,Wind Onshore,10,2.5,"Land to North of
Tullo Farm
Laurencekirk",Grampian,-2.395697802469385,56.836390262822945
S12000008,East Ayrshire,Galawhistle,Ventient (formerly Infinis),Wind Onshore,22,3,7km east of Muirkirk in East Ayrshire and 4km west of Douglas in South Lanarkshire,Strathclyde,-3.9754222827482066,55.53957495446018
E07000137,East Lindsey,Gayton Le Marsh Wind Farm,Energiekontor UK,Wind Onshore,8,2.05,"Carlton Grange, Thacker Bank, Great Carlton, Gayton Le Marsh, Louth, Lincolnshire (3.3km to the northeast of Great Carlton and 2.4km south of Saltfleetby)",Lincolnshire,0.16600012538885225,53.36263755190499
S12000021,North Ayrshire,GlaxoSmithKline Wind Project (Turbine 4),GlaxoSmithKline,Wind Onshore,1,2.5,Shewalton Road Riverside Business Park Irvine Ayrshire,Strathclyde,-4.6181886684990845,55.592866816116505
S12000017,Highland,Glen Kyllachy Wind Farm,Greencoat UK Wind,Wind Onshore,20,2.5,"10 miles south of Inverness, 3 miles south-east of the B851 and 3 miles west of the A9 trunk road and village of Tomatin",Highland,-4.085650126190479,57.3207318659251
E06000011,East Riding of Yorkshire,Goole Fields,RWE npower,Wind Onshore,16,2.05,"Goole Fields Parish , East Riding of Yorkshire",Humberside,-0.889282907791799,53.665925880120746
E07000010,Fenland,Greenvale AP Wind Turbine,Greenvale AP,Wind Onshore,1,1.5,"Land North West Of Greenvale Produce Ltd, Floods Ferry Road, Doddington",Cambridgeshire,-0.004589616354396406,52.520671270377846
S12000020,Moray,Hill of Glaschyle Wind Farm,Muirden Energy,Wind Onshore,12,2.3,Hill Of Glaschyle Logie Forres Moray,Grampian,-3.6155871218559428,57.51052023330883
S12000006,Dumfries and Galloway,Kilgallioch wind farm,Scottish Power Renewables,Wind Onshore,96,2.5,"(Arecloch Phase 2) land five kilometres to the south of Barrhill, five kilometres to the northeast of New Luce and 11km to the northwest of Kirkcowan",Dumfries and Galloway,-4.801715850373398,54.98845275791273
E06000004,Stockton-on-Tees,Lambs Hill,Banks Renewables,Wind Onshore,4,2,"Stillington Industrial Estate, Stockton, village of Stillington, to the north west of Stockton and around three miles east of the A1(M",County Durham,-1.3262605707411417,54.54620776657187
S12000017,Highland,Lochluichart (Extension),Infinergy,Wind Onshore,6,3,"Btwn Loch Luichart and Loch Glascarnoch, Lochluichart, Garve, Highlands, IV23.",Highland,-4.841364086551645,57.68011343522537
E06000062,West Northamptonshire,M1 Wind Farm,Wind Prospect Developments,Wind Onshore,9,0.8,Land between Roade Courteenhall Hartwell and the M1,Northamptonshire,-0.8616551279535762,52.16172136739278
E07000113,Swale,New Rides Wind Farm,Airvolution Energy,Wind Onshore,4,2,"New Rides Farm, Leysdown Road, Sheerness",Kent,0.8632499827968694,51.396040944072936
S12000047,Fife,Noble Foods,Wind Direct,Wind Onshore,1,1.5,"Poultry Buildings, Strathore Farm, Strathore Road, Thornton, Fife",Fife,-3.1592658207566062,56.16407301800833
E08000033,Calderdale,Ovenden Moor (Repower),Yorkshire Windpower,Wind Onshore,9,2.5,"Withens Road, Wainstalls, Halifax,",West Yorkshire,-1.9407921396980157,53.77082744568435
W06000013,Bridgend,Pant y wal extension,Pennant Walters (PYWX),Wind Onshore,8,2.5,"Mynydd Maesteg, Mynydd Pwlle yr Helog, Ogmore Vale, Rhondda Valley",Mid Glamorgan,-3.522043144165748,51.58722803760176
E08000016,Barnsley,Park Spring Wind Farm,EDF Energy Renewables,Wind Onshore,3,2.85,"Ferry Moor Lane, Cudworth, Barnsley",South Yorkshire,-1.4021086339786475,53.573973984201636
S12000034,Aberdeenshire,Brotherton (formerly Paul Matthew Hill wind turbines),Renewable Energy Ventures,Wind Onshore,2,2.3,"Paul Matthew Hill, Johnshaven, Montrose, Grampian, DD10 0HW",Grampian,-2.371849664136358,56.814732402873645
W06000018,Caerphilly,Pen Bryn Oer Wind Farm,REG Windpower/ BlackRock,Wind Onshore,3,1.33,"Pen Bryn Oer, Merthyr Road, Rhymney",Mid Glamorgan,-3.2759126746971017,51.77485194209945
E07000011,Huntingdonshire,Ramsey Wind Farm Extension,REG Windpower,Wind Onshore,4,2,"St Marys Road, Ramsey",Cambridgeshire,-0.1223894867530626,52.46813946388153
E06000001,Hartlepool,Red Gap Moor Wind Farm,Capital Dynamics,Wind Onshore,5,2.5,"Sunderland Road,Wolviston, Billingham, Cleveland",Cleveland,-1.320570012242704,54.64676703025659
E08000033,Calderdale,Todmorden Moor,Todmorden Moor Wind Farm Ltd,Wind Onshore,5,3,"Todmorden,",West Yorkshire,-2.159003068312627,53.700629291635586
S12000017,Highland,Tom Nan Clach,Infinergy,Wind Onshore,13,3,"Approximately 8km North East Of Tomatin, Drynachan
Nairnshire",Highland,-3.8917048816227533,57.39288250754723
S12000034,Aberdeenshire,Tullo Wind Farm South (Ext.),Eneco,Wind Onshore,4,2.5,"Tullo Farm, Laurencekirk
 AB30 1HS",Grampian,-2.404893688985702,56.82742212676146
E06000062,West Northamptonshire,Watford Lodge,Broadview Energy,Wind Onshore,5,2,runs from Watford to West Hadon Road along norhtern side of railway,Northamptonshire,-1.106941902968092,52.32651762428485
S12000017,Highland,Wathegar 2 Wind Farm,BayWa r.e.,Wind Onshore,9,2.05,"Wathegar, Bilbster, Wick",Highland,-3.215898539995248,58.43515792094466
S12000029,South Lanarkshire,West Browncastle,Falck Renewables,Wind Onshore,12,2.5,"Strathaven, Strathclyde, ML10 6QW",Strathclyde,-4.209136437479134,55.65899211368623
S12000006,Dumfries and Galloway,Brochloch Rig (formerly Windy Standard II),Fred Olsen Renewables,Wind Onshore,30,3,Near New Cummock,Dumfries and Galloway,-4.203148815861893,55.29220785566121
E06000011,East Riding of Yorkshire,Withernwick extension,Energiekontor UK,Wind Onshore,4,2.05,"Land North And North East
Homer House
Aldbrough Road
Withernwick
East Riding Of Yorkshire",Humberside,-0.1656290286238437,53.859018777218445
S12000010,East Lothian,Pogbie Wind Farm 1,Mongoose (formerly Energy Law Unlimited),Wind Onshore,6,8.5,"Humbie, East Lammermuirs, East Lothian.EH36 5PN",Lothian,-2.8330224628551726,55.821847948471
S12000006,Dumfries and Galloway,Barlockhart Moor,West Coast Energy,Wind Onshore,4,2.03,"Barlockhart Farm, Glenluce, Newton Stewart, Wigtownshire DG8 0JG",Dumfries and Galloway,-4.787907055758589,54.86569886273004
S12000006,Dumfries and Galloway,Minnygap,Minnygap (formerly RES),Wind Onshore,10,2.5,Nr Annandale,Dumfries and Galloway,-3.5148021405721197,55.24876801079651
S12000029,South Lanarkshire,Middle Muir Wind Farm,Banks Renewables,Wind Onshore,15,3.4,"Middle Muir, Hamilton, Strathclyde (north of Crawfordjohn)",Strathclyde,-3.8040169924869027,55.512885933756024
S12000006,Dumfries and Galloway,Sanquhar Community Windfarm,Community Windpower,Wind Onshore,9,3.4,"located approximately 7km Southwest of Sanquhar, 5km to the Southwest of Kirkconnel and 4km Southwest of the small steading of Drumbuie",Dumfries and Galloway,-4.0465703479660275,55.34417698550054
S12000006,Dumfries and Galloway,Balmurrie Fell Wind Farm,Scottish Southern Energy,Wind Onshore,7,1.3,"Balmurrie Fell, Newton Stewart, Dunfries & Galloway. DG8",Dumfries and Galloway,-4.516466281321381,54.87249318780103
S12000006,Dumfries and Galloway,Solwaybank Wind Farm,The Renewables Infrastructure Group (TRIG),Wind Onshore,15,2,"Allfornought Hill, Langholm, Dumfries & Galloway (8 km south-west of Langholm and 12 km north of Gretna)",Dumfries and Galloway,-3.10775050033184,55.10017431027133
S12000048,Perth and Kinross,Burnfoot Hill Extension,Private Developer,Wind Onshore,2,2,Site South Of The Upper And Lower Glendevon Resevoirs Glendevon,Tayside,-3.768914358565436,56.21539344420843
S12000006,Dumfries and Galloway,Airies Farm,NTR,Wind Onshore,14,2.9,"Airies Farm, Glenluce",Dumfries and Galloway,-4.657736096679616,54.802050805497586
S12000006,Dumfries and Galloway,Craig Wind Farm (Extension),Temporis Capital,Wind Onshore,1,2.5,Westerkirk,Dumfries and Galloway,-5.0871272839086155,54.86847106642369
W06000009,Pembrokeshire,Lawrence Landfill,Wind Energy Direct,Wind Onshore,2,0.8,"Lawrence Landfill, Pope Hill, Johnston, Haverfordwest, Dyfed, SA62 3NX",Dyfed,-5.0007642200708204,51.77445768982977
S12000006,Dumfries and Galloway,Plascow wind cluster,Private Developer,Wind Onshore,3,0.8,"Plascow Farm, Dalbeattie,",Dumfries and Galloway,-3.7602133056581097,54.95625774117507
W06000012,Neath Port Talbot,Maesgwyn Wind Farm - extension,Pennant Walters (MAESX) Limited,Wind Onshore,1,2.5,Maesgwyn Wind Farm Between Onllwyn & Glynneath,West Glamorgan,-3.6442351263179544,51.74055755942916
E07000132,Hinckley and Bosworth,Halifax Farm,Wentworth and Harper,Wind Onshore,1,1.6,"Halifax Farm, Merrylees Road, Newbold Heath, Newbold Verdon, Leicester, Leicestershire",Leicestershire,-1.3252179398817345,52.639805526591
E07000238,Wychavon,Norton Fields Farm,REsense c/o CO2Sense,Wind Onshore,1,1.3,"Norton Fields Farm, Mucknell Farm Lane, Stoulton, Worcester",Hereford and Worcester,-2.142730479575483,52.164310590922
S12000006,Dumfries and Galloway,Carscreugh Renewable Energy Park,John Laing Environmental Assets Group/ REG Power Management,Wind Onshore,18,0.85,"Gelnluce, nr Luce Bay Dumfries and Galloway",Dumfries and Galloway,-4.727967962264626,54.85909599027178
S12000006,Dumfries and Galloway,Whiteside Hill,Whiteside Hill Farm (Scotland),Wind Onshore,11,2.3,Whiteside Hill near Sanquhar,Dumfries and Galloway,-4.029442075056163,55.3574139126262
N09000006,Fermanagh and Omagh,Slieve Rushen Extension,NA,Wind Onshore,18,3,"Slieve Rushen
Derrylin
Fermanagh",Co. Fermanagh,-7.62840011815144,54.19028103229391
S12000006,Dumfries and Galloway,North Rhins,Greencoat UK Wind,Wind Onshore,11,2,"North Rhins
Stranraer
Dumfries and Galloway",Dumfries and Galloway,-5.088097565351753,54.877077503121626
S12000034,Aberdeenshire,Jacksbank Wind Farm (Glenbervie),East Coast Viners,Wind Onshore,3,2.26,"Drumlithie, Stonehaven",Grampian,-2.3866207967051194,56.93989027209686
E06000061,North Northamptonshire,New Albion Wind Farm,John Laing Environmental Assets Group,Wind Onshore,7,2.05,"Agricultural land at Towns Close Farm, between Pipewell and Rushton and close to the A6003 Road to Corby",Northamptonshire,-0.7554074991878122,52.45019572823949
S12000006,Dumfries and Galloway,Sunnyside wind cluster,Sunnyside Wind Farm,Wind Onshore,2,0.5,"Land at Sunnyside, Sanquhar",Dumfries and Galloway,-3.948910068984826,55.37901866980569
S12000026,Scottish Borders,Keith Hill,Sky Wind Energy,Wind Onshore,5,0.9,"Humbie,",Lothian,-2.825455926353661,55.81727154871253
S12000006,Dumfries and Galloway,Minsca,Airtricity,Wind Onshore,16,2.3,"8km NE of Lockerbie
Dumfries and Galloway",Dumfries and Galloway,-3.3528565978291582,55.12207056967945
S12000006,Dumfries and Galloway,Artfield Fell,Scottish and Southern Energy (SSE),Wind Onshore,15,1.3,"Artfield Fell
Near New Luce
NX230670",Dumfries and Galloway,-4.774580540550114,54.97041240374808
S12000006,Dumfries and Galloway,Wether Hill,Scottish Power/CRE Energy,Wind Onshore,14,1.3,"Moniaive
Dumfries",Dumfries and Galloway,-4.045235493306987,55.223053552556046
S12000006,Dumfries and Galloway,Dalswinton,Airtricity Scotland,Wind Onshore,15,2,"Nr village of Dalswinton
Dumfries",Dumfries and Galloway,-3.650562297931761,55.18409712774817
S12000006,Dumfries and Galloway,Craig Wind Farm,Craig Wind Farm Co,Wind Onshore,4,2.5,Westerkirk,Dumfries and Galloway,-3.0689924136718707,55.164118122467734
S12000035,Argyll and Bute,Beinn an Tuirc Phase 2,Scottish Power Renewables,Wind Onshore,16,2.3,"South of original Beinn and Tuirc
Nr. Carradale",Strathclyde,-5.587352693566457,55.573170618122
S12000010,East Lothian,Aikengall,Community Wind Power,Wind Onshore,16,3,"Aikengall
Nr Innerwick
Dunbar
East Lothian
EH42 1SG",Lothian,-2.4900662877040944,55.91720873381596
S12000006,Dumfries and Galloway,Brochloch Rig 1 (formerly Windy Standard),Fred Olsen Renewables,Wind Onshore,36,0.6,"Windy Standard
",Dumfries and Galloway,-4.182939377786245,55.29706494445241
E07000175,Newark and Sherwood,Hawton Wind Farm,Temporis Capital,Wind Onshore,3,2.5,"Cotham Road, Hawton, Nottinghamshire",Nottinghamshire,-0.8141970400821196,53.04823402505062
E07000028,Carlisle,Beck Burn,EDF Energy Renewables,Wind Onshore,9,3.45,"Beck Burn Peat Works, Springfield, Longtown",Cumbria,-3.0262663932628113,55.01068104394024
W06000003,Conwy,Clocaenog Forest Wind Farm,RWE Innogy UK,Wind Onshore,32,3,"Clocaenog forest, Ruthin,",Clwyd,-3.489152007622376,53.07104094105692
N09000006,Fermanagh and Omagh,Altamuskin Extension,Altamuskin Windfarm (Energia),Wind Onshore,3,2.35,"Sixmilecross, Clogher, Co. Tyrone",Co. Tyrone,-7.111342782362394,54.51275167645243
N09000008,Mid and East Antrim,Rathsherry,Energia (formerly Brookfield Renewable Energy Group),Wind Onshore,9,2.3,"lands in the townland of Rathsherry, east of Tullymore Road and south and north of Longmore Road, Broughshane, Ballymena",Co. Antrim,-6.175702167216491,54.951488647144224
N09000008,Mid and East Antrim,Elginny Hill,Brookfields (Antrim Wind Energy),Wind Onshore,11,2,"Carncoagh Hill, Elginny Hill, Clontrace Hill, Broughshane,",Co. Antrim,-6.192861985758464,54.93261137374845
S12000026,Scottish Borders,Hoprigshiels Community Wind Farm,Private Developer,Wind Onshore,3,2.3,"Land North And South Of 1 Whinhouse, Hoprigshiels, Cockburnspath, Scottish Borders",Borders,-2.3914969193911033,55.92068838144868
S12000029,South Lanarkshire,Black Law Extension - 1b,Scottish Power Renewables,Wind Onshore,5,3,"Black Law, Climpy",Strathclyde,-3.762566605098417,55.76218897974121
S12000010,East Lothian,Aikengall 3 Community Wind Farm,Community Windpower,Wind Onshore,18,3.6,Land North Of Nether Monynut Cottage Cockburnspath Scottish Borders,Borders,-2.4525902607503536,55.89341637689038
S12000006,Dumfries and Galloway,Glen App,Scottish Power Renewables,Wind Onshore,11,2,"NE/o Cairnryan, Stranraer, Dumfries and Galloway",Strathclyde,-4.989675973919237,55.000660679638294
W06000012,Neath Port Talbot,Pen Y Cymoedd,Vattenfall (previously Nuon Renewables),Wind Onshore,76,3,Land stretches from the Upper Afan Valley to end of Cynon Valley.,Neath Port Talbot,-3.695730196024751,51.65554291633171
S12000017,Highland,Stronelairg Wind Farm,Scottish and Southern Energy (SSE),Wind Onshore,66,3.6,located approximately 11 kilometres to the south-east of Fort Augustus,Highland,-4.5263699907224115,57.126924519130995
E06000062,West Northamptonshire,M1 J18 Wind Turbines,Airvolution Energy,Wind Onshore,2,2,"Land Between Watling Street And M1, Celtic Way, Kilsby, Northamptonshire",Northamptonshire,-1.1576866764484717,52.34950111983735
S12000048,Perth and Kinross,Tullymurdoch Wind Farm,Temporis Capital,Wind Onshore,7,2.05,"Alyth, Blairgowrie, Tayside",Tayside,-3.3134138177532892,56.65490848904884
S12000026,Scottish Borders,Penmanshiel Wind Farm,Renewable Energy Systems (RES),Wind Onshore,14,2,Land East Of Penmanshiel Farmhouse Grantshouse Scottish Borders,Borders,-2.321296252346168,55.896866097840814
S12000026,Scottish Borders,Kinegar Quarry,Airvolution Energy,Wind Onshore,2,2.5,Land South West Of Neuk Farm Cockburnspath,Borders,-2.363691558427343,55.93478104884399
E06000052,Cornwall,St. Breock Re-Power,REG & Blackrock,Wind Onshore,5,2.5,St. Breock,Cornwall,-4.821264283965933,50.49557601786335
S12000035,Argyll and Bute,Carraig Gheal,Green Power,Wind Onshore,20,2.3,"Carraig Gheal, Argyll and Bute",Strathclyde,-5.294537321952413,56.33901041894965
S12000026,Scottish Borders,Langhope Rig,Greencoat UK Wind,Wind Onshore,10,1.6,"Langhope Rig, Ettrick Forest, Scottish Borders",Borders,-2.9398882945092843,55.47066474710523
S12000034,Aberdeenshire,Clashindarroch,Vattenfall,Wind Onshore,18,2.05,"Clashindarroch Forest, Huntly,",Grampian,-2.86614768634714,57.366481936075076
E07000046,Torridge,Galsworthy Wind Park,Ecotricity,Wind Onshore,4,2.3,"Land At Galsworthy, Buckland Brewer And Bulkworthy",Devon,-4.271451484566959,50.91868510024303
S12000017,Highland,Strathy North,Scottish and Southern Energy (SSE),Wind Onshore,33,2.05,"Near Strathy Village, Sutherland",Highland,-4.033588056654732,58.490004008494246
S12000034,Aberdeenshire,Mid Hill - Phase II,Fred Olsen Renewables,Wind Onshore,8,2.3,"Mid Hill, Fetteresso
Stonehaven",Grampian,-2.486163818498314,56.96877477323675
S12000013,Na h-Eileanan Siar,Monan Hill Wind Turbines,North Harris Trust,Wind Onshore,3,0.5,500m North Of Ceann An Ora Quarry Ardhasaig Isle Of Harris,Western Isles,-6.8317979615534234,57.94167513686407
S12000006,Dumfries and Galloway,Crossdykes,Muirhall Energy,Wind Onshore,10,4.8,Land Forming Part Of Crossdykes Farm,Dumfries and Galloway,-3.1728699866762593,55.17614841005409
S12000017,Highland,Halsary Wind Farm,Scottish Power Renewables,Wind Onshore,15,2.3,"Spittal, Caithness",Highland,-3.44444715023542,58.43089974308122
E06000031,Peterborough,French Farm,REG Windpower (previously Cornwall Light and Power),Wind Onshore,2,2.5,"French Farm, French Drove, Thorney, Peterborough,",Cambridgeshire,-0.10433880071390145,52.66354299140061
S12000006,Dumfries and Galloway,Glenchamber Wind Farm,Renewable Energy Systems (RES),Wind Onshore,11,2.5,"between New Luce, Kirkcowan and Glenluce",Dumfries and Galloway,-4.754333642927352,54.96342048614851
S12000017,Highland,Bhlaraidh (previously Balmacaan),Scottish and Southern Energy (SSE),Wind Onshore,32,3.43,Near Invermoriston,Highland,-4.581905437398852,57.21914701357764
E06000005,Darlington,Moor House Wind Farm,Banks Renewables,Wind Onshore,6,2.5,"Bishopton Lane, Great Burdon, Darlington",County Durham,-1.4972377766537892,54.574646548860514
S12000029,South Lanarkshire,Kype Muir Wind Farm,Banks Renewables,Wind Onshore,26,3.4,approximately 5 km south of the town of Strathaven,Strathclyde,-4.036104942819622,55.632651616712636
W06000012,Neath Port Talbot,Llynfi Afan Renewable Energy Park,John Laing Environmental Assets Group,Wind Onshore,3,2,"Mynydd Y Gelli, Port Talbot, Bridgend",Neath Port Talbot,-3.614678403016432,51.64273897780618
S12000028,South Ayrshire,Assel Valley Wind Farm,Falck Renewables,Wind Onshore,11,2.3,"Pinmore, Girvan, Strathclyde",Strathclyde,-4.778705371098767,55.22647843305392
S12000017,Highland,Bad a Cheo Wind Farm,Innogy,Wind Onshore,13,2.05,Bad A Cheo Achkeepster Spittal,Highland,-3.429193008105916,58.420462483226444
E06000011,East Riding of Yorkshire,Fraisthorpe Wind Farm,Octopus Investments,Wind Onshore,9,3.3,"Land North East Of Manor Farm, Main Street, Fraisthorpe, East Riding Of Yorkshire",Humberside,-0.23071666254817597,54.047875933465576
W06000011,Swansea,Mynydd Y Gwair Wind Farm,RWE Npower Renewables/ Innogy,Wind Onshore,16,3,"Swansea,",West Glamorgan,-3.938128656328255,51.74924125488976
E07000146,King's Lynn and West Norfolk,Jack's Lane Wind Farm,Aviva,Wind Onshore,6,2.3,Barwick Hall Farm Barwick Road Stanhoe King's Lynn Norfolk,Norfolk,0.6873906944351783,52.88408355231861
E06000052,Cornwall,Denzell Downs Wind Farm,REG Windpower / BlackRock,Wind Onshore,5,2,"Higher Denzell Farm, St Mawgan, Newquay,",Cornwall,-4.9615151040420145,50.465948913588505
N09000004,Causeway Coast and Glens,Long Mountain,Energia Renewables,Wind Onshore,12,2,"Dunloy, Co. Antrim",Co. Antrim,-6.442004906712942,54.98409602794562
N09000006,Fermanagh and Omagh,Cregganconroe,Gaelectric Developments/ CGN Europe Energy,Wind Onshore,6,2.3,"Loughmallon Road, Cregganconroe, Pomeroy ",Co. Tyrone,-6.979109285602401,54.622596051790346
N09000006,Fermanagh and Omagh,Ora More,Natural Power,Wind Onshore,6,2.3,"Ora More Hill, in the Townlands of Killycreen East, Ora Beg and Mullylusty, near Boho and Belcoo, CoFermanagh",Co. Fermanagh,-7.895902831517564,54.33849624229562
E07000125,Rossendale,Reaps Moss Wind Farm,Infrared Capital Partners,Wind Onshore,3,3.4,"Reaps Moss, Bacup",Lancashire,-2.1671047453693055,53.70016884181222
W06000012,Neath Port Talbot,"Llynfi Renewable Energy Park, Land at Mynydd Caerau",John Laing Environmental Assets Group,Wind Onshore,12,2,"Glyncorrwg and Gelli Mountain, Croeserw, Neath and Port Talbot",Neath Port Talbot,-3.6210853961589766,51.64488969913664
E07000146,King's Lynn and West Norfolk,Chiplow,Blue Energy,Wind Onshore,5,2,"Bewteen the villages of Bagthorpe, Barmer and Syderstone in North West Norfolk",Norfolk,0.6907598261060655,52.856878223648096
E08000035,Leeds,Hook Moor,Banks Renewables,Wind Onshore,3,2.05,"Land at Hook Moor, Micklefield, Leeds",West Yorkshire,-1.3355207121209323,53.811902483047106
E08000005,Rochdale,Crook Hill (Rochdale MBC) 2 of 2,Infrared Capital Partners,Wind Onshore,7,3.4,"Crook Hill/Shore Moor, North Of Watergrove Reservoir, Rochdale",Greater Manchester,-2.1147681548386483,53.67047981294887
E06000011,East Riding of Yorkshire,Far Marsh Farm,Private Developer,Wind Onshore,3,2.5,"Marsh Road, Ottringham, Hull,",Humberside,-0.11411499967262068,53.67746903658124
W06000009,Pembrokeshire,Wear Point,John Laing Environmental Assets Group,Wind Onshore,4,2.05,"Land at Wear Point, Waterston Industrial, Llanstadwell",Dyfed,-4.996465314715065,51.70213908807233
E07000074,Maldon,Middlewick wind farm,Blue Energy (formerly Ridgewind Ltd),Wind Onshore,9,2.3,"Land Between Middlewick Farm And Wraywick Farm, The Marshes, Southminster, Essex",Essex,0.8924744802586716,51.663137226954305
E06000057,Northumberland,Blyth Harbour Wind Farm (re-power),Hainsford Energy,Wind Onshore,1,3.4,"Blyth Harbour, North Blyth, Cambois, Bedlington, Northumberland",Northumberland,-1.4906274532246266,55.12052187484485
S12000017,Highland,Corriegarth,Greencoat Capital,Wind Onshore,23,3,"Near Gorthleck, Inverness-shire",Highland,-4.359638023950259,57.190084558112524
E07000035,Derbyshire Dales,Carsington Pasture,Carsington Wind Energy Limited,Wind Onshore,4,2,"Carsington Pasture, Derbyshire Dales",Derbyshire,-1.6335877674823787,53.08445505604621
E06000056,Central Bedfordshire,Langford Wind Farm,Co-operative Group,Wind Onshore,10,2,"Edworth Road, Langford, Biggleswade, Bedfordshire, SG18 9PJ",Bedfordshire,-0.2452787397604577,52.058987169673436
S12000034,Aberdeenshire,Mid Hill I,Fred Olsen Renewables,Wind Onshore,25,2.3,"Mid Hill, Fetteresso
Stonehaven",Grampian,-2.486163818498314,56.96877477323675
S12000021,North Ayrshire,Ardrossan Extension,Airtricity,Wind Onshore,3,2,"Near Ardrossan
North Ayreshire",Strathclyde,-4.806141229676192,55.64389978582304
S12000017,Highland,Beinn Tharsuinn Windfarm Project,CRE Energy/ Scottish Power,Wind Onshore,17,1.75,"Beinn Tharsuinn,Nr Easter Andross, Easter Ross, Northern Highlands",Highland,-4.328995396362208,57.80527491009226
W06000010,Carmarthenshire,Blaengwen,Statkraft and Catamount Energy Corporation,Wind Onshore,10,2.3,Pencader Carms.,Dyfed,-4.237982733162495,51.97780720441368
S12000034,Aberdeenshire,Boyndie Airfield,RDC Scotland Ltd/ Falck Renewables,Wind Onshore,8,2,"Boyndie Airfield, 
Banff",Grampian,-2.638964003784477,57.66532977882181
E06000061,North Northamptonshire,Burton Wold Windfarm,Gravis Capital Management,Wind Onshore,10,2,"Felaw Maltings, Felaw Street, Ipswich",Northamptonshire,-0.6430819045208926,52.36076160947809
N09000006,Fermanagh and Omagh,Callagheen,B9 / Renewable Energy Systems (RES),Wind Onshore,13,1.75,"Garrison, near borders",Co. Fermanagh,-8.093026643535708,54.417776298345416
S12000017,Highland,Edinbane Wind Farm,Vattenfall,Wind Onshore,18,2.3,"Cruachan Brinn Mhicaskill, Edinbane, Portree, Highlands",Highland,-6.432206098199517,57.46912682028169
S12000017,Highland,Fairburn,Scottish and Southern Energy (SSE),Wind Onshore,20,2.15,"Fairburn
Marybank",Highland,-4.631530153790545,57.53290975816524
S12000017,Highland,Farr Wind Farm,Innogy (formerly RWE npower),Wind Onshore,40,2.3,"Tomatin
Inverness",Highland,-4.103012495227077,57.33392061775464
W06000012,Neath Port Talbot,Ffynnon Oer Wind Farm,RWE npower,Wind Onshore,16,2,Near Glyncorrwg,West Glamorgan,-3.6286651585443943,51.68295601715897
S12000023,Orkney Islands,Flotta,Scotwind (Scottish Renewables),Wind Onshore,1,1.75,"Flotta,Westhill, Orkney",Orkney Islands,-3.097252177491517,58.84124656731271
S12000017,Highland,Forss Wind Farm (Extension),Renewable Energy Systems (RES),Wind Onshore,4,1.3,"Ex Navy Base Forss, Dounreay Thurso Caithness",Highland,-3.6881357460645985,58.60235907124372
N09000005,Derry City and Strabane,Lough Hill,B9 / Renewable Energy Systems (RES),Wind Onshore,6,1.75,"Lough Hill
East of Drumquin
County Tyrone",Co. Tyrone,-7.60521290939184,54.63429585940413
S12000042,Dundee City,Michelin Tyre Co Ltd - Dundee,Ecotricity,Wind Onshore,2,2,"Baldovie Road, Dundee
Dundee",Tayside,-2.89382753092997,56.48363280485251
S12000017,Highland,Millennium Windfarm,Renewable Development Company (RDC) Scotland (Ltd) for FALCK RENEWABLES,Wind Onshore,16,2.5,"Millennium Windfarm
on The Achlain and Invergarry amd Aberchalder Estates
Glengarry Invergarry
Inverness-Shire
(nr Glen Moriston
Fort Augustus)",Highland,-4.883641231931057,57.15522678150692
S12000029,South Lanarkshire,Muirhall,Lomond Energy,Wind Onshore,6,3,"Stellashaw Moss, South Lanarkshire",Strathclyde,-3.5857653858798217,55.766934464828076
W06000023,Powys,Mynydd Clogau Wind Farm,Renewable Energy Systems (RES),Wind Onshore,17,0.85,"Mynydd Clogau, Mynydd Bwrch-y-gors and Mynydd Cerrigllwydion, near Adfa, Newtown, Powys",Powys,-3.42847654952579,52.57838579830629
E07000117,Burnley,New Barn Farm,Private Developer,Wind Onshore,3,1.5,"Billington Road, Burnley, BB11 5QQ",Lancashire,-2.303419569856716,53.77315375458533
E07000143,Breckland,North Pickenham,Foresight Group,Wind Onshore,8,1.8,"near Hempnall
South Norfolk",Norfolk,0.7320519868648447,52.62922137665769
S12000020,Moray,Paul's Hill and Extension,Fred Olsen Renewables,Wind Onshore,28,2.3,"Paul's Hill, Bowlingalloch, Moray, (area is also known as Ballindalloch)
(14km west of Charlestown, 13km north of Granthon on Spey)",Grampian,-3.4762072217469564,57.44615230158722
N09000006,Fermanagh and Omagh,Tappaghan Extension,Greencoat UK Wind,Wind Onshore,6,1.5,"Lack, Tappaghan Mountains, Northern Ireland",Co. Fermanagh,-7.695579791861857,54.54713562172703
W06000004,Denbighshire,Tir Mostyn And Foel Goch Wind Farm,Munich Re (previously Windjen Power Ltd),Wind Onshore,25,0.85,"Nantglyn, Denbighshire",Clwyd,-3.4910997506076176,53.11702668808237
E06000047,County Durham,Trimdon Grange,Cumbria Wind Farms,Wind Onshore,4,1.3,"Trimdon Grange, County Durham",County Durham,-1.4426370144822516,54.720416390490854
S12000021,North Ayrshire,Wardlaw Wood,Wind Prospect / Community Windpower,Wind Onshore,6,3,"Dalry
Ayrshire",Strathclyde,-4.789481338375854,55.72248444708525
S12000050,North Lanarkshire,Southrigg,Southrigg WT,Wind Onshore,1,1.5,"Southrigg Farm, Bathgate",North Lanarkshire,-3.7295369182125553,55.871061970944425
W06000005,Flintshire,Kingspan,Kingspan,Wind Onshore,2,0.9,"Kingspan Ltd, 2-4 Bagillt Road, Greenfield, Holywell",Flintshire,-3.2007685725421253,53.28967040416918
S12000048,Perth and Kinross,Binn Eco Park - Wind Farm,Binn Eco Park,Wind Onshore,4,2.3,"Binn Eco Park Wind Farm, Glenfarg, Perth, Tayside",Perth and Kinross,-3.3296234363166968,56.30613954591541
S12000034,Aberdeenshire,Gawnsmoss Cluster,Farm Energy Consulting,Wind Onshore,3,0.8,Site at Cairnhill Banff,Aberdeenshire,-2.61301206347591,57.62232418447423
E06000060,Buckinghamshire,Quarrendon Fields,AWE Renewables,Wind Onshore,1,1.5,"Quarrendon Fields, Aylesbury",Buckinghamshire,-0.8359907802791673,51.84240244251684
E07000173,Gedling,Newstead and Annesley Wind Turbine,Redpath Energy,Wind Onshore,1,1.5,"Newstead and Annesley Country Park, Tilford Road, Newstead",Nottinghamshire,-1.2178115497267141,53.07525827260797
E09000025,Newham,Beckton Sewage Treatment Works,Thames Water Utilities,Wind Onshore,2,1,"Beckton Sewage Works, Jenkins Lane, Barking",London,0.07991012209364433,51.52563480479312
E06000011,East Riding of Yorkshire,Melton Waste Park,Seneca Global Energy,Wind Onshore,2,2.5,"Land South West Of Melton Waste, Gibson Lane, Melton, North Ferriby,",Humberside,-0.5336356229008943,53.71721987723426
S12000017,Highland,Hill of Lybster (Wind Turbine - Extension),The Energy Workshop,Wind Onshore,1,1.5,"Land 200M N Of, 3 Lybster Road, Forss, Thurso, Highlands",Highland,-3.679804919996895,58.60126451892747
E06000061,North Northamptonshire,Burton Wold Wind Farm South,Infinergy/ Muirhall Energy,Wind Onshore,3,2.75,"Land at Glendon Farm, Burton Latimer, Kettering",Northamptonshire,-0.6564881210594107,52.35355132719564
S12000029,South Lanarkshire,Cumberhead Wind Farm,Octopus Renewables Infrastructure Trust,Wind Onshore,12,NA,"Cumberhead, Lanark, Strathclyde",South Lanarkshire,-3.958943965526721,55.57184310955333
W06000022,Newport,ANP Newport Wind Turbine,Associated British Ports,Wind Onshore,2,2.3,"Land To South Of South Dock, Alexandra Docks, And Adjacent to River Usk, East Way Road",Gwent,-2.973814711711214,51.555913906968335
W06000004,Denbighshire,Brenig Wind Farm,CGNEE,Wind Onshore,16,3,"Land east of Llyn Brenig, Nantglyn, Denbigh,",Denbighshire,-3.5030561912252485,53.1089652150274
S12000010,East Lothian,Pogbie Wind Farm 2,Mongoose (formerly Energy Law Unlimited/ Pogbie Windfarm),Wind Onshore,6,0.8,"Humbie, Lothian",East Lothian,-2.8421014442512877,55.839451181039394
W06000003,Conwy,Bodtegir,Clean Earth Energy,Wind Onshore,1,1.5,"Land at Bodtegir, part of the, Mwdwl Eithin, Nant Bach Wind Farm On Land At, Corwen",Clwyd,-3.498786657644282,53.017510662671526
W06000016,Rhondda Cynon Taf,West of Rhiwfelin Fach Farm,Infinite Renewables,Wind Onshore,1,1.5,"Land to the West of, Rhiwfelin Fach Farm, Llantrisant, Heol Sticil-Y-Beddau, Pontyclun",Mid Glamorgan,-3.391393912645986,51.55887983145654
S12000029,South Lanarkshire,Marshill Farm,Green Cat Renewables,Wind Onshore,1,1.5,"Farmland to the West of, Draffan Road, Draffanmarshill Farm, Lanark, Strathclyde",South Lanarkshire,-3.9333650160309537,55.68710418760376
S12000029,South Lanarkshire,Woodlands Wind Farm,WhiteRock Energy,Wind Onshore,3,0.85,"Woodlands Farm, Lesmahagow, Lanark",South Lanarkshire,-3.910458129664787,55.63329830487039
E06000023,"Bristol, City of",Accolade Wines,Clean Earth Energy,Wind Onshore,1,1.5,"Accolade Wines, Kings Weston Lane, Avonmouth, Bristol, Avon",Avon,-2.6890706101627475,51.516993524383885
S12000030,Stirling,Craigannet Farm Wind Turbine,Clean Earth Energy,Wind Onshore,1,1.5,Land Some 1600 Metres North West Of Craigannet Farm Fintry,Stirling,-4.068480838632537,56.045452372884675
S12000010,East Lothian,Ferneylea Farm,CBK Galbraith,Wind Onshore,2,0.75,"Ferneylea Farm, Cockburnspath",East Lothian,-2.417819370758437,55.91484254901166
W06000016,Rhondda Cynon Taf,Graig Fatha Farm,Cleanearth,Wind Onshore,1,2.5,"Land at Graig Fatha Farm, Tonyrefail, Porth, Mid Glamorgan",Rhondda Cynon Taff,-3.425452095991111,51.55884859692749
S12000017,Highland,Forss Wind Farm,Renewable Energy Systems (RES),Wind Onshore,2,1.3,Wind Turbine Ex Navy Base Forss Dounreay Thurso Caithness,Highland,-3.6881357460645985,58.60235907124372
S12000006,Dumfries and Galloway,Sandy Knowe Wind Farm,ERG,Wind Onshore,24,3.4,"Site Art Libry Moor, Locharbriggs, By Kirkconnel and Kelloholm,",Dumfries and Galloway,-4.0513445486984265,55.37214738988416
S12000034,Aberdeenshire,Deuchries Windfarm (extension),Green Cat Renewables,Wind Onshore,2,1,"Land At Deuchries, Near Aberchirder, Huntly, Grampian",Aberdeenshire,-2.6081868145424303,57.57201811155916
E07000195,Newcastle-under-Lyme,The Low Carbon Energy Generation Project at Keele University,Keele University,Wind Onshore,2,1,"Land Adj To Springpool Wood, Keele, Newcastle-Under-Lyme",Staffordshire,-2.2710239763446123,53.00191023661259
N09000010,"Newry, Mourne and Down",Dundrinne Road,Private Developer,Wind Onshore,1,0.23,"App 275m South West Of, 63 Dundrinne Road, Castlewellan, Co Down",Co. Down,-5.928677698556478,54.245606672466074
S12000006,Dumfries and Galloway,Windy Rig Wind Farm,Statkraft UK,Wind Onshore,12,3,"Carsphairn, Castle Douglas,",Dumfries and Galloway,-4.178561474848133,55.274673124322334
E06000052,Cornwall,Land near Ventonteague,Cornwall Council,Wind Onshore,1,2.3,"Land Off Ventonteague, St. Allen, Truro,",Cornwall,-5.055564811795879,50.32080070523191
S12000017,Highland,Lower Rumster wind turbine,Ventus Renewables,Wind Onshore,3,0.05,"Land At Lower Rumster, Lybster,",Highland,-3.3376515927398103,58.308515398518495
E07000082,Stroud,Mounteneys and Cherry Rock Wind Turbines,Resilient Energy Mounteneys Renewables,Wind Onshore,2,0.5,"Wickwar Road, Kingswood, Wotton Under Edge",Gloucestershire,-2.386963750917667,51.60248542745884
